{
"type": "FeatureCollection",
"name": "비행경로",
"crs": { "type": "name", "properties": { "name": "urn:ogc:def:crs:OGC:1.3:CRS84" } },
"features": [
{ "type": "Feature", "properties": { "fid": 1, "id": null, "num": "002" }, "geometry": { "type": "MultiLineString", "coordinates": [ [ [ 127.620215824867785, 34.737410576277995 ], [ 127.619622619220038, 34.73774140996192 ], [ 127.619479116092947, 34.7382217290508 ], [ 127.619661031519968, 34.738949298247796 ], [ 127.618337256541167, 34.738943868436458 ], [ 127.618629701571706, 34.740690768411746 ], [ 127.619456689891507, 34.741135811871303 ], [ 127.622786330620769, 34.741871646563773 ] ] ] } },
{ "type": "Feature", "properties": { "fid": 2, "id": null, "num": "001" }, "geometry": { "type": "MultiLineString", "coordinates": [ [ [ 127.628041608365336, 34.738542227695277 ], [ 127.62795510450033, 34.738773361794024 ], [ 127.627490873116201, 34.739625656003966 ], [ 127.629579458386928, 34.739627044491158 ], [ 127.631755275103671, 34.739494388969995 ] ] ] } },
{ "type": "Feature", "properties": { "fid": 3, "id": null, "num": "003" }, "geometry": { "type": "MultiLineString", "coordinates": [ [ [ 127.627362580407393, 34.747967541684538 ], [ 127.627439515478699, 34.748416382287246 ], [ 127.624944688021998, 34.749194095766725 ], [ 127.623965577593765, 34.748094226545668 ], [ 127.62274154936118, 34.749642449665338 ], [ 127.621919452041752, 34.749865188161117 ], [ 127.620424151706189, 34.750552722184246 ], [ 127.621572412525936, 34.75066829575929 ], [ 127.622264675813796, 34.750786183893993 ] ] ] } },
{ "type": "Feature", "properties": { "fid": 4, "id": null, "num": "004" }, "geometry": { "type": "MultiLineString", "coordinates": [ [ [ 127.622668573321121, 34.761505070826203 ], [ 127.622113076374163, 34.761981421741957 ], [ 127.626036247273163, 34.761317862369125 ], [ 127.62674212715531, 34.761277815117829 ], [ 127.630153731344294, 34.761065984300522 ], [ 127.63082741959316, 34.760661835002651 ] ] ] } },
{ "type": "Feature", "properties": { "fid": 5, "id": null, "num": "005" }, "geometry": { "type": "MultiLineString", "coordinates": [ [ [ 127.6398493683445, 34.755381889149191 ], [ 127.640448849671628, 34.754905226827603 ], [ 127.640472939290731, 34.754213035437921 ], [ 127.640986300466309, 34.754016076640362 ], [ 127.641364663650435, 34.754439079371714 ], [ 127.640828252713831, 34.754508675133799 ], [ 127.641030352192743, 34.754962919737437 ], [ 127.641590752143472, 34.755142097499629 ], [ 127.641540448385982, 34.754707659404353 ] ] ] } },
{ "type": "Feature", "properties": { "fid": 6, "id": null, "num": "006" }, "geometry": { "type": "MultiLineString", "coordinates": [ [ [ 127.640540536885837, 34.758213300851999 ], [ 127.640948083863194, 34.758599688689614 ], [ 127.641268304666625, 34.759107948802871 ], [ 127.641947500698151, 34.759426127406833 ], [ 127.64286217542552, 34.759755203503296 ], [ 127.643254089944165, 34.760020250987239 ], [ 127.64339882779035, 34.760662986309292 ] ] ] } },
{ "type": "Feature", "properties": { "fid": 7, "id": null, "num": "007" }, "geometry": { "type": "MultiLineString", "coordinates": [ [ [ 127.64365806337554, 34.760892307398962 ], [ 127.643109968708657, 34.76088305539129 ], [ 127.642356007955073, 34.760887026121566 ], [ 127.641679258648423, 34.760887550873136 ], [ 127.640921479360429, 34.760873320581219 ], [ 127.640259675260538, 34.760904112650714 ], [ 127.639904696741723, 34.761139736076032 ], [ 127.640012304594151, 34.761740174953061 ], [ 127.640002220510937, 34.762341230920299 ], [ 127.639962759488313, 34.762948511618625 ] ] ] } },
{ "type": "Feature", "properties": { "fid": 8, "id": null, "num": "008" }, "geometry": { "type": "MultiLineString", "coordinates": [ [ [ 127.639629875315961, 34.761748212430582 ], [ 127.639225866757087, 34.761823178062158 ], [ 127.637768675966598, 34.762692846678412 ], [ 127.637383469441758, 34.763301932934198 ], [ 127.635741330764915, 34.763079810220937 ], [ 127.634439020250184, 34.764009339611469 ], [ 127.634178595661893, 34.76362216588597 ], [ 127.633887823840269, 34.763113734400491 ], [ 127.634940184710985, 34.763168971281772 ], [ 127.63499495089188, 34.762634461270252 ], [ 127.63366298086693, 34.76256853542391 ], [ 127.633571656347229, 34.762168340681207 ], [ 127.635264288278123, 34.762262744467222 ], [ 127.635694270226921, 34.762697598793679 ], [ 127.636285377961784, 34.762081411916377 ], [ 127.636442453401116, 34.762420554294366 ], [ 127.636926730650899, 34.762260188636731 ], [ 127.637100386040089, 34.761882896379419 ], [ 127.637923423523404, 34.761769285581828 ], [ 127.638537533263161, 34.761274344161436 ], [ 127.637898700605902, 34.761423382654129 ], [ 127.637816038295057, 34.761199235515093 ], [ 127.636019655697794, 34.761002205216499 ], [ 127.636828786427159, 34.760997985849102 ], [ 127.637638010124007, 34.761005902099903 ], [ 127.638587086073954, 34.7610252227608 ], [ 127.639521404175255, 34.761038542615779 ] ] ] } },
{ "type": "Feature", "properties": { "fid": 9, "id": null, "num": "009" }, "geometry": { "type": "MultiLineString", "coordinates": [ [ [ 127.639696658977314, 34.760867605229073 ], [ 127.639599493184704, 34.760667780081967 ], [ 127.638790179505079, 34.760647735839122 ], [ 127.638949018458277, 34.760258376982179 ], [ 127.639611074919827, 34.760260979808173 ], [ 127.639541931488353, 34.759878885513366 ], [ 127.640025001950875, 34.760519851603824 ], [ 127.640042114297387, 34.759876263418342 ], [ 127.63987078528541, 34.759597907737479 ], [ 127.640057403532566, 34.758995925822461 ], [ 127.640038485856664, 34.75844965829809 ] ] ] } },
{ "type": "Feature", "properties": { "fid": 10, "id": null, "num": "010" }, "geometry": { "type": "MultiLineString", "coordinates": [ [ [ 127.63966287475013, 34.763168592152795 ], [ 127.640009771681889, 34.763318541846601 ], [ 127.639985443044822, 34.763980379723151 ], [ 127.639781718274151, 34.76427284325316 ], [ 127.639106718784006, 34.763547891649296 ], [ 127.638978651946971, 34.764113140782698 ], [ 127.639541585556088, 34.764614063125926 ], [ 127.639101949741729, 34.76484098348876 ], [ 127.638472219021935, 34.765220665347414 ], [ 127.637856682281537, 34.765533491678518 ], [ 127.637544812044922, 34.765158773929535 ], [ 127.637195724224156, 34.764723504096068 ], [ 127.636921502929397, 34.764457823146167 ], [ 127.637720982209757, 34.764150111186261 ], [ 127.63652907571327, 34.764125980035971 ], [ 127.635606257174672, 34.764658943922292 ], [ 127.634802545572967, 34.764414226922298 ], [ 127.63512224169439, 34.764855727420596 ], [ 127.63541931594149, 34.765224495973328 ], [ 127.635745817414602, 34.765593110468622 ], [ 127.63610253638943, 34.76606476905858 ] ] ] } },
{ "type": "Feature", "properties": { "fid": 11, "id": null, "num": "011" }, "geometry": { "type": "MultiLineString", "coordinates": [ [ [ 127.634804101004804, 34.764614514971022 ], [ 127.634674705210102, 34.765009785919275 ], [ 127.634258965210634, 34.764514146796209 ], [ 127.6339397843212, 34.764139419422513 ], [ 127.633500458312682, 34.763443565703547 ], [ 127.633230464040452, 34.76276504402658 ], [ 127.633218113472722, 34.762109468120435 ], [ 127.632622244439474, 34.762106487548174 ] ] ] } },
{ "type": "Feature", "properties": { "fid": 12, "id": null, "num": "013" }, "geometry": { "type": "MultiLineString", "coordinates": [ [ [ 127.637202172478609, 34.765561193828404 ], [ 127.637343894367575, 34.765815424660616 ], [ 127.636743293832694, 34.766158521052091 ], [ 127.636230498226737, 34.76644044939917 ], [ 127.63659481242594, 34.766942420521112 ], [ 127.636058920456037, 34.767090912454783 ], [ 127.636575766180243, 34.767337117621494 ], [ 127.636830578751798, 34.76794893229166 ], [ 127.637319170546306, 34.768347049993551 ], [ 127.637544333174887, 34.768928664203926 ], [ 127.637458710357294, 34.769275143242474 ], [ 127.637815035810362, 34.769692161858515 ], [ 127.638385077609783, 34.770156627380153 ], [ 127.637989082703356, 34.770322608082722 ], [ 127.638368278020351, 34.770842707810857 ] ] ] } },
{ "type": "Feature", "properties": { "fid": 13, "id": null, "num": "014" }, "geometry": { "type": "MultiLineString", "coordinates": [ [ [ 127.639030699155384, 34.770881735781828 ], [ 127.638717895235573, 34.770385573581734 ], [ 127.639061365974115, 34.770086309523357 ], [ 127.639545589083255, 34.769913792248872 ], [ 127.639786297664585, 34.76964541832745 ], [ 127.639892344333234, 34.769086355039398 ], [ 127.640088230886761, 34.768733263499826 ], [ 127.639426060089036, 34.768724593523444 ], [ 127.639313285276273, 34.768409506330244 ], [ 127.640173234203289, 34.768307866380994 ], [ 127.64042673071549, 34.767790524053268 ], [ 127.639758005603611, 34.76788509268944 ], [ 127.639015855458752, 34.767998254366184 ], [ 127.63842454910025, 34.767637105286376 ], [ 127.639504993637289, 34.767510033416009 ], [ 127.639413775295608, 34.767128055211721 ], [ 127.638465328967499, 34.767199799122984 ], [ 127.637989873739883, 34.767554388273957 ], [ 127.637604178245425, 34.767143594166946 ], [ 127.638424350342802, 34.76665364744813 ], [ 127.639286150211646, 34.766794833506289 ], [ 127.63890631472654, 34.7661897492886 ], [ 127.639957782384954, 34.76612353252564 ], [ 127.639822081007026, 34.76665239793283 ], [ 127.640089851002301, 34.76703344993183 ], [ 127.640666690234852, 34.766471915464592 ], [ 127.640361764356953, 34.766042493807824 ], [ 127.641144188387855, 34.766384417441373 ], [ 127.640610564083929, 34.765871207454829 ], [ 127.640248522142997, 34.765666702449877 ] ] ] } },
{ "type": "Feature", "properties": { "fid": 14, "id": null, "num": "015" }, "geometry": { "type": "MultiLineString", "coordinates": [ [ [ 127.636285929950205, 34.767915348916638 ], [ 127.636763434503507, 34.768787043857273 ], [ 127.635983188863165, 34.768730405346091 ], [ 127.635223968100277, 34.769499272102948 ], [ 127.634432804212736, 34.769940480626957 ], [ 127.633373093607489, 34.769897419515004 ], [ 127.632430718743649, 34.769805175269546 ], [ 127.631547659343269, 34.769773324100782 ], [ 127.631455413930439, 34.769251718304922 ], [ 127.631509375613447, 34.76860794117475 ], [ 127.632069294289479, 34.768714315630376 ], [ 127.632213097545218, 34.768276477803724 ], [ 127.631359941237321, 34.768305177610486 ], [ 127.631416301612234, 34.767977066284466 ] ] ] } },
{ "type": "Feature", "properties": { "fid": 15, "id": null, "num": "016" }, "geometry": { "type": "MultiLineString", "coordinates": [ [ [ 127.636709613100066, 34.775204085976348 ], [ 127.635541871031506, 34.775474250257652 ], [ 127.635301526539237, 34.775794214983783 ], [ 127.636183047331627, 34.775616606491475 ], [ 127.636604700698967, 34.77591490832846 ], [ 127.637202228645037, 34.77612122948517 ], [ 127.636497274993488, 34.776297924458952 ], [ 127.636259442561581, 34.77694569707927 ], [ 127.635799217655148, 34.777376082117549 ], [ 127.635867593043798, 34.777658014510024 ], [ 127.63569408593365, 34.778059586376195 ] ] ] } },
{ "type": "Feature", "properties": { "fid": 16, "id": null, "num": "017" }, "geometry": { "type": "MultiLineString", "coordinates": [ [ [ 127.634651495989885, 34.783159867065152 ], [ 127.634368162189702, 34.783634856636738 ], [ 127.634295008936093, 34.784172495581522 ], [ 127.634584815506031, 34.784544337779352 ], [ 127.634940706183045, 34.784897623206398 ], [ 127.635514828003664, 34.784921952290368 ], [ 127.636244232531197, 34.785045635822726 ], [ 127.636269375755447, 34.785446172006417 ], [ 127.636746194660176, 34.785735078811655 ], [ 127.63734442310637, 34.786023349542511 ], [ 127.637248863951584, 34.78651557663872 ], [ 127.636986700069556, 34.786872082511302 ], [ 127.637122008953767, 34.787244724928478 ], [ 127.635006994764851, 34.787793009819723 ], [ 127.635284138921392, 34.786507610739399 ], [ 127.635292180548319, 34.786116007679794 ], [ 127.635553791943707, 34.785686659664854 ] ] ] } },
{ "type": "Feature", "properties": { "fid": 17, "id": null, "num": "018" }, "geometry": { "type": "MultiLineString", "coordinates": [ [ [ 127.640650442852547, 34.785350397075845 ], [ 127.640388507984838, 34.785734227253016 ], [ 127.638378720577663, 34.788476581169249 ], [ 127.638471779647034, 34.789095306848438 ], [ 127.638741999257817, 34.789785953497869 ], [ 127.639055953029924, 34.790421733965999 ], [ 127.639082513646102, 34.791004383003994 ], [ 127.639374539681626, 34.791658489478444 ], [ 127.638756709984904, 34.791698150202386 ], [ 127.638092209567418, 34.79141023358796 ], [ 127.637096585446187, 34.791124042961663 ] ] ] } },
{ "type": "Feature", "properties": { "fid": 18, "id": null, "num": "019" }, "geometry": { "type": "MultiLineString", "coordinates": [ [ [ 127.632219719776714, 34.788481334658428 ], [ 127.632483920638364, 34.788388904558857 ], [ 127.632269179380373, 34.784829542094656 ], [ 127.630915290167252, 34.783862200097857 ], [ 127.632934650666911, 34.783806210906711 ] ] ] } },
{ "type": "Feature", "properties": { "fid": 19, "id": null, "num": "020" }, "geometry": { "type": "MultiLineString", "coordinates": [ [ [ 127.634195798830675, 34.782743356902678 ], [ 127.633955011437621, 34.783008684560478 ], [ 127.633270954460514, 34.783039555158162 ], [ 127.633178774693292, 34.782530093043896 ], [ 127.633009896449266, 34.782093877405579 ], [ 127.63264236556671, 34.78165869166952 ], [ 127.631637225857105, 34.781554626177183 ], [ 127.631062920683533, 34.781502961350434 ], [ 127.631100709276595, 34.781029249523101 ], [ 127.630423994246073, 34.780934857402478 ], [ 127.629628865274199, 34.780870667385258 ], [ 127.629101918764931, 34.78051369498673 ], [ 127.62855452368548, 34.780370818650205 ] ] ] } },
{ "type": "Feature", "properties": { "fid": 20, "id": null, "num": "021" }, "geometry": { "type": "MultiLineString", "coordinates": [ [ [ 127.628623123496936, 34.779956138275381 ], [ 127.628205402896185, 34.780176835710151 ], [ 127.627694505005891, 34.779751478829986 ], [ 127.627271969596208, 34.779334771620157 ], [ 127.626531454610827, 34.779192878721688 ], [ 127.625836732651663, 34.779269292613506 ], [ 127.625656726647833, 34.778814911179715 ], [ 127.625079566023672, 34.778380776756755 ], [ 127.624931228031457, 34.779201084799887 ], [ 127.62388034142954, 34.77887864307165 ], [ 127.62457300822679, 34.778529068106423 ], [ 127.624658283175535, 34.778127963525741 ], [ 127.62374189271344, 34.778078014691147 ], [ 127.623525138770262, 34.778607275873242 ], [ 127.622893152424638, 34.778218941608998 ], [ 127.623198811024594, 34.777771182331648 ] ] ] } },
{ "type": "Feature", "properties": { "fid": 21, "id": null, "num": "022" }, "geometry": { "type": "MultiLineString", "coordinates": [ [ [ 127.619238197192132, 34.776480067409402 ], [ 127.618689124720234, 34.776847096413874 ], [ 127.618472205891393, 34.777358137505502 ], [ 127.617059891766331, 34.77740171177031 ], [ 127.616444182805211, 34.777714431035456 ], [ 127.614303372517909, 34.780730239050889 ] ] ] } },
{ "type": "Feature", "properties": { "fid": 22, "id": null, "num": "023" }, "geometry": { "type": "MultiLineString", "coordinates": [ [ [ 127.615227573180434, 34.775125332098128 ], [ 127.614052087685238, 34.775103934351641 ], [ 127.614479341626989, 34.774678349892511 ], [ 127.614145248810672, 34.774270257003039 ], [ 127.613759277326864, 34.774681973538755 ], [ 127.612700073590318, 34.77471461444317 ], [ 127.612837552089687, 34.774276831067255 ], [ 127.613689281350247, 34.774170107157921 ], [ 127.614366595042384, 34.773982300553477 ], [ 127.614388697714233, 34.7736133920085 ], [ 127.613570635903585, 34.773795076890032 ], [ 127.612942275749845, 34.773887019091248 ], [ 127.612497055099979, 34.774121460184162 ], [ 127.612476323689805, 34.773554709104062 ], [ 127.613483937729043, 34.773262805540298 ], [ 127.614013277909251, 34.773212336294009 ], [ 127.613644423370019, 34.772579040621778 ], [ 127.61301881824771, 34.77304663453112 ], [ 127.612965104234704, 34.772493670030592 ], [ 127.612795270213212, 34.771914046773304 ], [ 127.612691976260166, 34.771375028406069 ], [ 127.612245912869028, 34.771493369936373 ], [ 127.61237448606839, 34.772093728077948 ], [ 127.612435742572885, 34.772544173069875 ], [ 127.612065115956739, 34.772791897398193 ], [ 127.612019508593406, 34.772218441275719 ], [ 127.611506675874836, 34.772261989537938 ], [ 127.611542847273299, 34.772678412777701 ], [ 127.610877320736549, 34.77221733439341 ], [ 127.610929740489425, 34.772592699009536 ], [ 127.610852599510849, 34.77335799829423 ] ] ] } },
{ "type": "Feature", "properties": { "fid": 23, "id": null, "num": "024" }, "geometry": { "type": "MultiLineString", "coordinates": [ [ [ 127.610123841523318, 34.774427020245376 ], [ 127.60959293773206, 34.774265763437455 ], [ 127.607264018758599, 34.772706570552195 ], [ 127.606496607048385, 34.771890836630604 ], [ 127.605517809859279, 34.771595195174172 ], [ 127.605002888875191, 34.7713518837976 ], [ 127.603908136394097, 34.771043144904858 ], [ 127.602914886730986, 34.771034396562293 ] ] ] } },
{ "type": "Feature", "properties": { "fid": 24, "id": null, "num": "025" }, "geometry": { "type": "MultiLineString", "coordinates": [ [ [ 127.602688005528734, 34.771704816695966 ], [ 127.602287673230052, 34.771283358606873 ], [ 127.601178157483872, 34.771220533124271 ], [ 127.600088154756008, 34.771567376865193 ], [ 127.598815275728512, 34.771805834887473 ], [ 127.597442778233443, 34.772003789797004 ], [ 127.594871435149471, 34.771224117539411 ], [ 127.598159854217286, 34.772737872910803 ], [ 127.598113538237598, 34.773202511833176 ], [ 127.598068204853206, 34.77380373761703 ] ] ] } },
{ "type": "Feature", "properties": { "fid": 25, "id": null, "num": "026" }, "geometry": { "type": "MultiLineString", "coordinates": [ [ [ 127.605880667825005, 34.75779078678115 ], [ 127.606092231430537, 34.757298005204525 ], [ 127.6060154677361, 34.75698422467368 ], [ 127.604998655234809, 34.757125860633508 ] ] ] } },
{ "type": "Feature", "properties": { "fid": 26, "id": null, "num": "00_001" }, "geometry": { "type": "MultiLineString", "coordinates": [ [ [ 127.59155433122659, 34.763918913189777 ], [ 127.591698916334593, 34.763303548351921 ] ] ] } },
{ "type": "Feature", "properties": { "fid": 27, "id": null, "num": "00_002" }, "geometry": { "type": "MultiLineString", "coordinates": [ [ [ 127.589784851111915, 34.768219878548834 ], [ 127.589391308273392, 34.768744243645827 ], [ 127.588259452684568, 34.768442372175393 ], [ 127.586542071804374, 34.769608253759429 ], [ 127.586388620241763, 34.768973838622202 ], [ 127.586955806272314, 34.766666123148404 ], [ 127.586307255686776, 34.766238975382379 ] ] ] } },
{ "type": "Feature", "properties": { "fid": 28, "id": null, "num": "00_003" }, "geometry": { "type": "MultiLineString", "coordinates": [ [ [ 127.586076008467131, 34.765133690656228 ], [ 127.586607910906395, 34.764864781147672 ], [ 127.586677475558744, 34.764167827452965 ], [ 127.586933383060853, 34.7634904665858 ], [ 127.587512318870594, 34.762852528404615 ], [ 127.58800391940612, 34.762153541752504 ], [ 127.588223368402453, 34.761589042126758 ], [ 127.588563970227867, 34.760603937272784 ] ] ] } },
{ "type": "Feature", "properties": { "fid": 29, "id": null, "num": "00_004" }, "geometry": { "type": "MultiLineString", "coordinates": [ [ [ 127.588719316541187, 34.759752902263443 ], [ 127.589190564478486, 34.759689162150181 ], [ 127.589458414946023, 34.758950271553537 ], [ 127.589888785971823, 34.758374505629156 ], [ 127.590158371165344, 34.757881470880733 ], [ 127.590427443992155, 34.757316727106726 ], [ 127.59053398961457, 34.756588858437667 ], [ 127.590430472711688, 34.755995183163094 ], [ 127.590054473331207, 34.755484780413809 ], [ 127.5896762266796, 34.754656810373824 ], [ 127.589983255081009, 34.754194328152913 ], [ 127.590587508992314, 34.753638207824558 ] ] ] } },
{ "type": "Feature", "properties": { "fid": 30, "id": null, "num": "00_005" }, "geometry": { "type": "MultiLineString", "coordinates": [ [ [ 127.590459172267174, 34.75304465233986 ], [ 127.591141088465946, 34.752938908017839 ], [ 127.591025451766271, 34.752386269259418 ], [ 127.590909816660059, 34.751833630325422 ], [ 127.590894202602456, 34.751382951364064 ], [ 127.591287436626018, 34.750827848627466 ], [ 127.591832006615107, 34.750610076993276 ], [ 127.592639109263402, 34.750657383737924 ], [ 127.593032912517458, 34.750184227994005 ], [ 127.593425322560819, 34.749516433698545 ], [ 127.593757060419108, 34.749043577248671 ], [ 127.594410822651668, 34.748476952591552 ], [ 127.595104374083945, 34.74826868532903 ] ] ] } },
{ "type": "Feature", "properties": { "fid": 31, "id": null, "num": "00_006" }, "geometry": { "type": "MultiLineString", "coordinates": [ [ [ 127.595386747053894, 34.747837042738787 ], [ 127.595538318699809, 34.748205102729287 ], [ 127.596391370953185, 34.747739939390563 ], [ 127.597456575173695, 34.7474376428342 ] ] ] } },
{ "type": "Feature", "properties": { "fid": 32, "id": null, "num": "028" }, "geometry": { "type": "MultiLineString", "coordinates": [ [ [ 127.583486290639257, 34.772890861543267 ], [ 127.58400475653481, 34.77246836182406 ], [ 127.584615451940365, 34.772803503051342 ], [ 127.58444800926776, 34.771943776164754 ], [ 127.58554854884008, 34.771323876081105 ], [ 127.584997985877109, 34.770711852612784 ], [ 127.584585573396851, 34.770324541626522 ], [ 127.58427046242015, 34.769649920401129 ], [ 127.58407978575336, 34.769015680453613 ], [ 127.583628921021585, 34.768454395293176 ], [ 127.580995497096794, 34.76823133750446 ], [ 127.581323706588535, 34.769008349128569 ], [ 127.58239447972683, 34.769453998166213 ], [ 127.58319560104043, 34.770392657381706 ], [ 127.583697210458837, 34.771107367165072 ], [ 127.581916632518173, 34.772130064333496 ], [ 127.580355970476475, 34.772649714795577 ], [ 127.579180780795298, 34.771477191710972 ], [ 127.578185696387848, 34.771205310830659 ] ] ] } },
{ "type": "Feature", "properties": { "fid": 33, "id": null, "num": "029" }, "geometry": { "type": "MultiLineString", "coordinates": [ [ [ 127.573887026263677, 34.772547086884657 ], [ 127.573017151512332, 34.772428240977916 ], [ 127.573707280651519, 34.77168740246173 ], [ 127.57599999484556, 34.771102918241866 ], [ 127.576604891523658, 34.770608331084148 ], [ 127.576264944495875, 34.769923561764806 ], [ 127.576333676371746, 34.769093440805783 ], [ 127.576317142470799, 34.768499343570362 ], [ 127.57647440447694, 34.76790442560047 ], [ 127.576049276668485, 34.767465923273811 ], [ 127.574398181974018, 34.765670688422446 ], [ 127.573968231339549, 34.766328352936824 ], [ 127.574458809538456, 34.767258286180606 ], [ 127.574687217123142, 34.767974319374972 ], [ 127.575037419512924, 34.770144483337418 ] ] ] } },
{ "type": "Feature", "properties": { "fid": 34, "id": null, "num": "030" }, "geometry": { "type": "MultiLineString", "coordinates": [ [ [ 127.570716956663077, 34.76289123035999 ], [ 127.56994824905837, 34.763027999179087 ], [ 127.566463752240153, 34.763576927679331 ] ] ] } },
{ "type": "Feature", "properties": { "fid": 35, "id": null, "num": "031" }, "geometry": { "type": "MultiLineString", "coordinates": [ [ [ 127.563806857023295, 34.761694009768597 ], [ 127.563325176526348, 34.762054788138691 ], [ 127.562918803209172, 34.762538150425428 ], [ 127.562667558185069, 34.762098798576226 ] ] ] } },
{ "type": "Feature", "properties": { "fid": 36, "id": null, "num": "027_01" }, "geometry": { "type": "MultiLineString", "coordinates": [ [ [ 127.590783222514062, 34.775939318039576 ], [ 127.590997631664692, 34.776409521422551 ], [ 127.593038040063774, 34.77700404177952 ], [ 127.592772504467902, 34.778070746991304 ], [ 127.591009217548304, 34.778038321457757 ], [ 127.588808414132203, 34.777587962518453 ], [ 127.588062402812312, 34.777437893794662 ], [ 127.588177912167225, 34.777970044876298 ], [ 127.586998661053286, 34.77800645571871 ], [ 127.587316756189622, 34.777339040628782 ], [ 127.58669389040007, 34.777044949463232 ], [ 127.586364026556311, 34.777804618945417 ], [ 127.586147110502168, 34.776975866079056 ], [ 127.586367477451006, 34.776534299081213 ] ] ] } },
{ "type": "Feature", "properties": { "fid": 37, "id": null, "num": "027_02" }, "geometry": { "type": "MultiLineString", "coordinates": [ [ [ 127.584716610337651, 34.776593441482241 ], [ 127.5841832585036, 34.776667706285394 ], [ 127.584830019809502, 34.775066484786578 ], [ 127.584750988101888, 34.774421467122771 ], [ 127.584759077786273, 34.773806765114884 ], [ 127.58464460551842, 34.773418026758442 ], [ 127.585554925924157, 34.772225313590177 ], [ 127.587159159273241, 34.772606893306452 ], [ 127.587563772751949, 34.771887838897285 ], [ 127.588614727982446, 34.771278356000543 ] ] ] } },
{ "type": "Feature", "properties": { "fid": 38, "id": null, "num": "027_00" }, "geometry": { "type": "MultiLineString", "coordinates": [ [ [ 127.60222233716506, 34.781681718790189 ], [ 127.602614743721389, 34.781003653577599 ], [ 127.601569436200549, 34.780680991436476 ], [ 127.599828261042575, 34.78027978775156 ], [ 127.598359657897376, 34.779795267904227 ] ] ] } },
{ "type": "Feature", "properties": { "fid": 39, "id": null, "num": "032_01" }, "geometry": { "type": "MultiLineString", "coordinates": [ [ [ 127.570463838837171, 34.776655769953088 ], [ 127.569805125678258, 34.776556403019121 ], [ 127.568532379125983, 34.777443355977631 ], [ 127.570601498227774, 34.778622049440138 ], [ 127.572270622496504, 34.781206064119409 ] ] ] } },
{ "type": "Feature", "properties": { "fid": 40, "id": null, "num": "033_00" }, "geometry": { "type": "MultiLineString", "coordinates": [ [ [ 127.572837252203911, 34.782350776652159 ], [ 127.573620530147494, 34.782500763319909 ], [ 127.573188932935125, 34.782933055125319 ], [ 127.574802829862705, 34.782894731321619 ], [ 127.575761008696134, 34.783197545929092 ], [ 127.578344725388462, 34.78513176015948 ], [ 127.576910951132604, 34.786081028952708 ], [ 127.579282324581982, 34.78603906218391 ], [ 127.580226994125951, 34.786177995419102 ], [ 127.58005261910823, 34.787879389614226 ] ] ] } },
{ "type": "Feature", "properties": { "fid": 41, "id": null, "num": "032_02" }, "geometry": { "type": "MultiLineString", "coordinates": [ [ [ 127.567496497885372, 34.785746129289507 ], [ 127.567992533989155, 34.785651622257994 ], [ 127.568212950479335, 34.785199843533 ], [ 127.568751424637995, 34.784049964685906 ], [ 127.569220299981311, 34.783617514683272 ], [ 127.569613970394073, 34.783082970079505 ], [ 127.570233377038662, 34.782875189894568 ], [ 127.570856722495236, 34.783241073501202 ], [ 127.571678029825634, 34.783503582912303 ], [ 127.572314931895548, 34.784033305514669 ] ] ] } },
{ "type": "Feature", "properties": { "fid": 42, "id": null, "num": "034" }, "geometry": { "type": "MultiLineString", "coordinates": [ [ [ 127.584108277127385, 34.789842328267639 ], [ 127.584550423085759, 34.79002973167448 ], [ 127.584609509762998, 34.790485322649062 ], [ 127.584992282390942, 34.790176157391976 ], [ 127.585458833424795, 34.790301974307283 ], [ 127.585517203053797, 34.790655124643088 ] ] ] } },
{ "type": "Feature", "properties": { "fid": 43, "id": null, "num": "035" }, "geometry": { "type": "MultiLineString", "coordinates": [ [ [ 127.587519020238716, 34.787505606064755 ], [ 127.58804067437076, 34.7875235820703 ] ] ] } },
{ "type": "Feature", "properties": { "fid": 44, "id": null, "num": "036" }, "geometry": { "type": "MultiLineString", "coordinates": [ [ [ 127.596932798162385, 34.786845256178722 ], [ 127.597055235227089, 34.786603914734812 ] ] ] } },
{ "type": "Feature", "properties": { "fid": 45, "id": null, "num": "037" }, "geometry": { "type": "MultiLineString", "coordinates": [ [ [ 127.599902401620795, 34.791404796094106 ], [ 127.600404358071017, 34.792129675794421 ], [ 127.600208342964663, 34.792499436685318 ], [ 127.600694556257665, 34.79276339690697 ], [ 127.600527525349847, 34.793706698886922 ], [ 127.602198863452955, 34.794712651072572 ], [ 127.602702347608059, 34.795642399947283 ] ] ] } },
{ "type": "Feature", "properties": { "fid": 46, "id": null, "num": "038" }, "geometry": { "type": "MultiLineString", "coordinates": [ [ [ 127.608712515095831, 34.792201196905587 ], [ 127.609928004064216, 34.79200048416029 ], [ 127.610857432892885, 34.791739725809705 ], [ 127.612020219680446, 34.791129482439764 ], [ 127.612252524197061, 34.790636588543528 ], [ 127.611596670923603, 34.790947208164219 ], [ 127.611433133393646, 34.790661186244222 ], [ 127.611014487877739, 34.791144767588193 ], [ 127.610392489512805, 34.790994215799728 ], [ 127.610371871598133, 34.791568002096042 ], [ 127.609665205627749, 34.791725200406582 ], [ 127.609860047957071, 34.791201765200952 ] ] ] } },
{ "type": "Feature", "properties": { "fid": 47, "id": null, "num": "039" }, "geometry": { "type": "MultiLineString", "coordinates": [ [ [ 127.602188838841244, 34.798894951585233 ], [ 127.601987331164509, 34.799364624341933 ], [ 127.602515382145214, 34.800253274591768 ], [ 127.602669092775173, 34.80089790824686 ], [ 127.603175182818703, 34.801325668979182 ], [ 127.604053847565879, 34.801751583340462 ] ] ] } },
{ "type": "Feature", "properties": { "fid": 48, "id": null, "num": "040" }, "geometry": { "type": "MultiLineString", "coordinates": [ [ [ 127.602159789812319, 34.797458326865936 ], [ 127.602758213052851, 34.79777806841355 ], [ 127.603511289663132, 34.797589947437878 ], [ 127.603680354086421, 34.797143482383348 ], [ 127.604030586062422, 34.796634654236655 ], [ 127.604408754576568, 34.796125686668361 ], [ 127.605115020423128, 34.795907054695682 ], [ 127.606063715244815, 34.79572563086213 ], [ 127.606817326990495, 34.79561431937563 ], [ 127.606853972221501, 34.796805041169932 ], [ 127.606220193437579, 34.796746726002809 ], [ 127.605251795704305, 34.79678226704543 ], [ 127.604628394890781, 34.796869873892 ], [ 127.604165002907209, 34.797187182853847 ], [ 127.603849845148446, 34.797396190933171 ] ] ] } },
{ "type": "Feature", "properties": { "fid": 49, "id": null, "num": "041" }, "geometry": { "type": "MultiLineString", "coordinates": [ [ [ 127.607031662349229, 34.796904039451654 ], [ 127.607365268801004, 34.796671881573161 ], [ 127.607931939230426, 34.796469294660689 ], [ 127.608629053744394, 34.796273737695401 ], [ 127.607254726247405, 34.795566043559624 ], [ 127.60801787341542, 34.795485410200804 ], [ 127.608583858317743, 34.795190624653294 ], [ 127.60901994365102, 34.796233370789537 ], [ 127.609509503639885, 34.795677731903076 ], [ 127.609187938588491, 34.795010895056684 ], [ 127.610015708300097, 34.794853093990227 ], [ 127.610002274691922, 34.795560020315655 ], [ 127.610708068360424, 34.795279892321439 ], [ 127.610667819305959, 34.794872881456975 ], [ 127.611429711677971, 34.794623201492037 ], [ 127.611358032993977, 34.795007723271418 ], [ 127.612120490899954, 34.794834868670051 ], [ 127.612061778279212, 34.794451000662995 ], [ 127.612758582253619, 34.794217005423469 ], [ 127.612864261994702, 34.794654419925585 ], [ 127.613608484041478, 34.794535430386318 ], [ 127.614260081525373, 34.79448605194397 ], [ 127.613194722011855, 34.793999683098868 ], [ 127.613304098590461, 34.793676436742949 ], [ 127.613762665871249, 34.793973777508718 ], [ 127.614665093298385, 34.793838619046248 ], [ 127.615241096311152, 34.793643634440592 ] ] ] } },
{ "type": "Feature", "properties": { "fid": 50, "id": null, "num": "042" }, "geometry": { "type": "MultiLineString", "coordinates": [ [ [ 127.615494378118555, 34.79388822094387 ], [ 127.615901657021936, 34.793548102540278 ], [ 127.616489592461619, 34.793706481331562 ], [ 127.61698388299564, 34.793796181630796 ], [ 127.617430579494282, 34.793747822295188 ], [ 127.617762543161774, 34.79330051333401 ], [ 127.61791435713522, 34.793676223770525 ], [ 127.618150210936506, 34.792829871479938 ], [ 127.618762535159505, 34.792511754215894 ], [ 127.619281035660023, 34.792101911148556 ], [ 127.61943591975411, 34.791640129799212 ], [ 127.620011207548586, 34.791352927306114 ], [ 127.6196096575258, 34.791208985486847 ], [ 127.620344812356066, 34.79112841721664 ], [ 127.620612797064453, 34.790850495542223 ], [ 127.621262118972155, 34.790501444517844 ], [ 127.621744378426726, 34.790230074032195 ], [ 127.622459629449892, 34.789980562919702 ], [ 127.622970627413537, 34.789816606494938 ] ] ] } },
{ "type": "Feature", "properties": { "fid": 51, "id": null, "num": "043" }, "geometry": { "type": "MultiLineString", "coordinates": [ [ [ 127.624701573070169, 34.789638686023963 ], [ 127.625317956098201, 34.789866025922741 ], [ 127.625777065604382, 34.790232467958113 ], [ 127.626281469011815, 34.790429644229931 ] ] ] } },
{ "type": "Feature", "properties": { "fid": 52, "id": null, "num": "044" }, "geometry": { "type": "MultiLineString", "coordinates": [ [ [ 127.628152655705009, 34.791557145104584 ], [ 127.628509924685162, 34.792000933387158 ], [ 127.629016266062578, 34.792451635297056 ], [ 127.629541064579982, 34.792879190059864 ], [ 127.629070690484255, 34.793488592733837 ], [ 127.62989770555491, 34.793238461655861 ], [ 127.630340560714913, 34.793912299712261 ], [ 127.630634408996642, 34.794586906405847 ], [ 127.631055847291748, 34.794892056770543 ], [ 127.631608144627734, 34.795257994128441 ], [ 127.632095954333991, 34.795716461966258 ] ] ] } },
{ "type": "Feature", "properties": { "fid": 53, "id": null, "num": "045" }, "geometry": { "type": "MultiLineString", "coordinates": [ [ [ 127.63248401931591, 34.795307238891191 ], [ 127.632928488140308, 34.794966871112877 ], [ 127.633601634583471, 34.795301439354894 ], [ 127.633251996526056, 34.794642496145215 ], [ 127.632568202743471, 34.792909631013003 ], [ 127.632621388974584, 34.792555926029358 ], [ 127.634249664296718, 34.792347707303229 ] ] ] } },
{ "type": "Feature", "properties": { "fid": 54, "id": null, "num": "046" }, "geometry": { "type": "MultiLineString", "coordinates": [ [ [ 127.631810685479948, 34.79617125088285 ], [ 127.631506201831968, 34.796549306193818 ], [ 127.630568737578727, 34.796976733683664 ], [ 127.6309252257049, 34.797312952979709 ], [ 127.631289745026677, 34.797480098401131 ], [ 127.631107910167913, 34.798064965322581 ], [ 127.6319267033915, 34.7979531612296 ], [ 127.632662724621952, 34.797980079205111 ], [ 127.633312694938255, 34.79771547651093 ], [ 127.6324712919196, 34.798526581664298 ], [ 127.632024988833294, 34.798628776876484 ], [ 127.631713931589331, 34.799367978735816 ], [ 127.631489637642446, 34.799269257984882 ], [ 127.629928733776978, 34.798555104045469 ], [ 127.627425925530162, 34.798913748131831 ] ] ] } },
{ "type": "Feature", "properties": { "fid": 55, "id": null, "num": "047" }, "geometry": { "type": "MultiLineString", "coordinates": [ [ [ 127.624506164871207, 34.799566439160834 ], [ 127.62435927982763, 34.799851470863651 ], [ 127.623548731982936, 34.799824883720241 ], [ 127.622897675405298, 34.799951141681305 ], [ 127.62227490442757, 34.800123351321076 ], [ 127.621559565713412, 34.800372861862442 ], [ 127.62074102081516, 34.800523011304193 ] ] ] } },
{ "type": "Feature", "properties": { "fid": 56, "id": null, "num": "048" }, "geometry": { "type": "MultiLineString", "coordinates": [ [ [ 127.63586613226974, 34.798100579293468 ], [ 127.635729363660829, 34.798279148812718 ], [ 127.63520908483828, 34.798450890290809 ], [ 127.634818022294226, 34.798468292479349 ], [ 127.634838765280819, 34.798744780983988 ] ] ] } },
{ "type": "Feature", "properties": { "fid": 57, "id": null, "num": "064" }, "geometry": { "type": "MultiLineString", "coordinates": [ [ [ 127.581544150699671, 34.87516647335152 ], [ 127.580970975805926, 34.875192256079103 ], [ 127.58020154227313, 34.875149821947453 ], [ 127.580462548301639, 34.874480143882529 ], [ 127.581104828044317, 34.874338786660147 ], [ 127.580305334824629, 34.873996852937367 ], [ 127.579413770217997, 34.87448513364405 ], [ 127.578740618653967, 34.874211737506045 ], [ 127.578647082573099, 34.874834518090168 ], [ 127.579394513367276, 34.875729898055681 ], [ 127.579595129321277, 34.876420429117495 ], [ 127.579349707555451, 34.877320526001213 ], [ 127.57906357466851, 34.876399905997424 ], [ 127.57840052767159, 34.875573272220123 ], [ 127.577738298235531, 34.874861878279013 ], [ 127.577215595440421, 34.874103720963866 ], [ 127.576774555528985, 34.87302248176811 ], [ 127.576685678033954, 34.872308367432431 ], [ 127.576318260617299, 34.87175691673044 ], [ 127.577140702062508, 34.871384233418794 ], [ 127.575742623225494, 34.871425418855829 ], [ 127.575279496143111, 34.871185585385426 ] ] ] } },
{ "type": "Feature", "properties": { "fid": 58, "id": null, "num": "065" }, "geometry": { "type": "MultiLineString", "coordinates": [ [ [ 127.574470231748151, 34.871442946463794 ], [ 127.574844417984821, 34.870957142624121 ], [ 127.573972830943703, 34.870292813397 ], [ 127.573520106428759, 34.869534309806497 ], [ 127.573234624973381, 34.868694344739652 ], [ 127.573018583993331, 34.867784903877791 ], [ 127.572342332156268, 34.869078892958001 ], [ 127.57240595306763, 34.868168137729469 ], [ 127.572541317752169, 34.867522115091155 ], [ 127.573000987536744, 34.867266410515114 ], [ 127.573288796303714, 34.866423749291464 ], [ 127.572977277494488, 34.865860500069601 ], [ 127.572439456893832, 34.866946354999115 ], [ 127.571887297298744, 34.86595781618427 ], [ 127.572318916388696, 34.865690720964025 ], [ 127.571756842225327, 34.865289991288641 ], [ 127.571377176911568, 34.864980602390887 ] ] ] } },
{ "type": "Feature", "properties": { "fid": 59, "id": null, "num": "066" }, "geometry": { "type": "MultiLineString", "coordinates": [ [ [ 127.571191296315362, 34.862353785958703 ], [ 127.571760487925246, 34.861763354223243 ], [ 127.572697253342682, 34.861758957490373 ], [ 127.573634417611174, 34.86181217555567 ], [ 127.574599066481554, 34.861796108195378 ], [ 127.575479985592054, 34.861803477993476 ], [ 127.576276694619594, 34.861765140378772 ], [ 127.577441076033438, 34.861588961822001 ], [ 127.57871873559985, 34.861446911410802 ], [ 127.581032359508967, 34.861149351910647 ] ] ] } },
{ "type": "Feature", "properties": { "fid": 60, "id": null, "num": "067" }, "geometry": { "type": "MultiLineString", "coordinates": [ [ [ 127.570743167971827, 34.862252161615089 ], [ 127.571005641702769, 34.861789941423602 ], [ 127.570208374167208, 34.861747573665845 ], [ 127.569439070516736, 34.861705070072205 ], [ 127.568669134646527, 34.86157036630123 ], [ 127.567898727162515, 34.861366511139714 ], [ 127.567857888667746, 34.861528048313026 ], [ 127.567017260402565, 34.861278415456347 ], [ 127.566203812352626, 34.860913402684872 ], [ 127.565503638632791, 34.860755305229993 ], [ 127.56484509739721, 34.860550911715016 ], [ 127.564116731087893, 34.860358362480461 ], [ 127.563682681693081, 34.86026817163556 ] ] ] } },
{ "type": "Feature", "properties": { "fid": 61, "id": null, "num": "068" }, "geometry": { "type": "MultiLineString", "coordinates": [ [ [ 127.570490534014041, 34.864143407548809 ], [ 127.57105386558645, 34.864728533725227 ], [ 127.570593092137742, 34.864822889330405 ], [ 127.57004723514406, 34.864744769431795 ], [ 127.569587728489992, 34.865023511709666 ], [ 127.56898697181083, 34.865095465612718 ], [ 127.568358803320535, 34.865248217773498 ], [ 127.567843517246104, 34.86555026305615 ], [ 127.567454699572167, 34.865943915773329 ], [ 127.567234692634671, 34.866486603986189 ], [ 127.567211147906292, 34.867132100823298 ], [ 127.567228524540752, 34.867627585170936 ], [ 127.567748171118652, 34.867959384627007 ], [ 127.567864062440748, 34.868546608124696 ], [ 127.567532346876021, 34.869112866497332 ], [ 127.567816033535252, 34.869699308663073 ], [ 127.568071204801896, 34.87020520960926 ] ] ] } },
{ "type": "Feature", "properties": { "fid": 62, "id": null, "num": "069" }, "geometry": { "type": "MultiLineString", "coordinates": [ [ [ 127.568403730918362, 34.871794077113165 ], [ 127.568616645756137, 34.872254074665314 ], [ 127.569300683606059, 34.87411789313412 ], [ 127.569782235350317, 34.875003049507285 ], [ 127.569982927984825, 34.875716646073919 ], [ 127.570097418354138, 34.876096427553442 ], [ 127.570368989919814, 34.876947988836164 ], [ 127.570899755354205, 34.878881662071748 ] ] ] } },
{ "type": "Feature", "properties": { "fid": 63, "id": null, "num": "070" }, "geometry": { "type": "MultiLineString", "coordinates": [ [ [ 127.573918403344251, 34.8785793677649 ], [ 127.574229737921513, 34.879108039760304 ], [ 127.574777374197581, 34.879428151441353 ], [ 127.57543649101018, 34.879690110656291 ], [ 127.575814876894185, 34.879803571141927 ], [ 127.576613364862823, 34.879995716994713 ], [ 127.576771532376867, 34.880617304660134 ], [ 127.577651043704051, 34.880394169559999 ], [ 127.578145096961066, 34.881048737251973 ], [ 127.579416909019912, 34.880927450586817 ], [ 127.579322806528126, 34.881469560552013 ], [ 127.578822896494856, 34.88197902403963 ], [ 127.577869664827247, 34.881660854528732 ], [ 127.577566419440458, 34.882296152414291 ], [ 127.576357125551681, 34.881356848285904 ], [ 127.574916122264597, 34.881282980566397 ], [ 127.575589079028475, 34.881521824037925 ], [ 127.576291052672701, 34.881910348161597 ], [ 127.576782293576741, 34.882161568740301 ] ] ] } },
{ "type": "Feature", "properties": { "fid": 64, "id": null, "num": "071" }, "geometry": { "type": "MultiLineString", "coordinates": [ [ [ 127.578229915688098, 34.883180411139584 ], [ 127.57845746439402, 34.883720993884367 ], [ 127.578795206511955, 34.88401903351847 ], [ 127.57904428152986, 34.883637534262988 ], [ 127.579490357371057, 34.883427968995171 ], [ 127.580148389897857, 34.883528561159928 ], [ 127.580457358393858, 34.883711485800028 ], [ 127.580476031884444, 34.884379831275552 ], [ 127.5805628546089, 34.884794308017106 ], [ 127.581390101242022, 34.885090007603424 ], [ 127.583658277127512, 34.883454179900085 ] ] ] } },
{ "type": "Feature", "properties": { "fid": 65, "id": null, "num": "072" }, "geometry": { "type": "MultiLineString", "coordinates": [ [ [ 127.573960356274242, 34.882612830031299 ], [ 127.573781346247941, 34.883017038697922 ], [ 127.573840483036179, 34.883477749788156 ], [ 127.573307367239082, 34.883238239081869 ], [ 127.572944469849105, 34.883343668134124 ], [ 127.572524594182454, 34.883299542165972 ] ] ] } },
{ "type": "Feature", "properties": { "fid": 66, "id": null, "num": "073" }, "geometry": { "type": "MultiLineString", "coordinates": [ [ [ 127.569873114957474, 34.884141749120793 ], [ 127.569087160799938, 34.883742055418942 ], [ 127.569642210375847, 34.88310560193036 ], [ 127.570252238965693, 34.882330591778839 ], [ 127.570806793299397, 34.881624986779457 ], [ 127.571110883705074, 34.881104948911975 ] ] ] } },
{ "type": "Feature", "properties": { "fid": 67, "id": null, "num": "074" }, "geometry": { "type": "MultiLineString", "coordinates": [ [ [ 127.569072700748279, 34.879604739957593 ], [ 127.568680260990647, 34.879479799253154 ], [ 127.568160458477806, 34.879136480763627 ], [ 127.566245366496091, 34.879260639619858 ], [ 127.565294731769697, 34.879311150943359 ], [ 127.564330268332782, 34.879384768363842 ], [ 127.563463695203126, 34.879457925683418 ], [ 127.562541182032462, 34.879531335003733 ], [ 127.561478351924151, 34.879536235218367 ], [ 127.560416223727913, 34.879644845697186 ], [ 127.560772943787597, 34.880691957628365 ], [ 127.560749502182276, 34.88136050100254 ], [ 127.560769264573466, 34.882213241525648 ], [ 127.561052168570811, 34.882684454356109 ], [ 127.56169431199578, 34.882508625770647 ], [ 127.563288535967175, 34.882489744207028 ], [ 127.563707775129672, 34.882441707102018 ], [ 127.56356353010014, 34.881796988292095 ], [ 127.56293135853241, 34.881385057043673 ], [ 127.5627438608049, 34.880544577589419 ] ] ] } },
{ "type": "Feature", "properties": { "fid": 68, "id": null, "num": "075" }, "geometry": { "type": "MultiLineString", "coordinates": [ [ [ 127.559846517064685, 34.880189126957006 ], [ 127.559759257810811, 34.879693963295004 ], [ 127.558612983853635, 34.879768370146635 ], [ 127.557578973156069, 34.879899876522011 ], [ 127.556545346444594, 34.880088996139555 ], [ 127.55557846747574, 34.879805287794802 ], [ 127.554644351549555, 34.880235957578144 ], [ 127.553610405290115, 34.880378954712981 ], [ 127.552952659187454, 34.880312791543638 ], [ 127.55221315811626, 34.880569688398715 ], [ 127.551554259742844, 34.880330651517973 ], [ 127.55064716627605, 34.880622871316106 ], [ 127.549611524486664, 34.880512297453883 ], [ 127.54878825467884, 34.880792600698179 ], [ 127.548380709083276, 34.880494790976783 ] ] ] } },
{ "type": "Feature", "properties": { "fid": 69, "id": null, "num": "076" }, "geometry": { "type": "MultiLineString", "coordinates": [ [ [ 127.546941949386607, 34.880754799445072 ], [ 127.546370776339984, 34.881091578822883 ], [ 127.546178257192835, 34.881588006211864 ], [ 127.547592418323845, 34.881835206607228 ], [ 127.548290143146062, 34.881601575213438 ], [ 127.549104712532611, 34.882116522767404 ], [ 127.549100584447928, 34.881494204485087 ], [ 127.549490480591146, 34.881238902918653 ], [ 127.550152214330723, 34.88190435413695 ], [ 127.551091206488877, 34.882199756341144 ], [ 127.552239367169491, 34.882402005791697 ], [ 127.553091766103037, 34.882294418368879 ], [ 127.553832590561029, 34.882233430972555 ], [ 127.554671232136272, 34.882160469253478 ], [ 127.555677847532152, 34.882109785649746 ], [ 127.556600163828023, 34.882001854913895 ], [ 127.557662638350578, 34.881939375063361 ] ] ] } },
{ "type": "Feature", "properties": { "fid": 70, "id": null, "num": "077" }, "geometry": { "type": "MultiLineString", "coordinates": [ [ [ 127.55475043123576, 34.881457098901215 ], [ 127.554108820672425, 34.881713561726748 ], [ 127.553958224934533, 34.88219828583744 ], [ 127.553865727284986, 34.883005438814507 ], [ 127.553827318675602, 34.883535751875634 ], [ 127.553762789308351, 34.884342777532979 ], [ 127.553643472819743, 34.885322923124846 ], [ 127.553591924138942, 34.885980067812568 ], [ 127.553512557199824, 34.886660388228584 ], [ 127.553390922939101, 34.887294801453322 ] ] ] } },
{ "type": "Feature", "properties": { "fid": 71, "id": null, "num": "078" }, "geometry": { "type": "MultiLineString", "coordinates": [ [ [ 127.561598574636989, 34.876642967742306 ], [ 127.562168793270416, 34.876179349082804 ], [ 127.561452402989175, 34.87571013556132 ], [ 127.560833673812382, 34.875205894196711 ], [ 127.561768247615191, 34.874855848159648 ], [ 127.560830473213841, 34.87473339367893 ], [ 127.560478069820434, 34.874320122947978 ], [ 127.559596160234619, 34.874185877274655 ], [ 127.560068643984252, 34.873745766432776 ], [ 127.559466024027799, 34.873552612502174 ], [ 127.558862551233261, 34.873232687042844 ], [ 127.559756329543248, 34.873055714933642 ], [ 127.559739074024009, 34.87257175395618 ], [ 127.559261847015733, 34.872308874523597 ], [ 127.559118200131167, 34.871744819751939 ], [ 127.558985446746547, 34.872794182448253 ], [ 127.558490428648227, 34.871966667898462 ], [ 127.558193787712923, 34.871524322851073 ] ] ] } },
{ "type": "Feature", "properties": { "fid": 72, "id": null, "num": "079" }, "geometry": { "type": "MultiLineString", "coordinates": [ [ [ 127.55742497989317, 34.871568177244903 ], [ 127.558080329415461, 34.871288584489754 ], [ 127.557377289856149, 34.870715562192984 ], [ 127.556885245467299, 34.870325968499223 ], [ 127.556294240934122, 34.869775477512214 ], [ 127.55580096973253, 34.869201488497737 ], [ 127.555672185479551, 34.868764134019877 ], [ 127.555641745612178, 34.868395479870316 ], [ 127.555236091723344, 34.868374278409739 ] ] ] } },
{ "type": "Feature", "properties": { "fid": 73, "id": null, "num": "080" }, "geometry": { "type": "MultiLineString", "coordinates": [ [ [ 127.551284939673621, 34.871388650757964 ], [ 127.550882070268429, 34.871788076549755 ] ] ] } },
{ "type": "Feature", "properties": { "fid": 74, "id": null, "num": "081" }, "geometry": { "type": "MultiLineString", "coordinates": [ [ [ 127.554635220048468, 34.86843463729317 ], [ 127.55522763237461, 34.868155346143205 ], [ 127.555650895795779, 34.867675139502062 ], [ 127.55461085018419, 34.867927657875519 ], [ 127.554287166510036, 34.867617960822223 ], [ 127.554039541295339, 34.867181144679563 ], [ 127.554022436598771, 34.866714468743304 ], [ 127.554158945500518, 34.866218282703677 ], [ 127.553945163400897, 34.865614203046228 ], [ 127.553796538787793, 34.86534404577489 ], [ 127.553531608190653, 34.865454734302006 ], [ 127.552635552704544, 34.865280164904057 ], [ 127.552380417122933, 34.865811461202789 ], [ 127.553002168042582, 34.865739494035822 ], [ 127.553512714234586, 34.865765989265441 ], [ 127.552382069578101, 34.866059236590175 ], [ 127.552244013410075, 34.866324932027119 ] ] ] } },
{ "type": "Feature", "properties": { "fid": 75, "id": null, "num": "082" }, "geometry": { "type": "MultiLineString", "coordinates": [ [ [ 127.556584805673282, 34.868275930431089 ], [ 127.555744296103882, 34.868049269104866 ], [ 127.556131941691859, 34.867471262525825 ], [ 127.556435377308901, 34.866847539920578 ], [ 127.556711230983311, 34.86628156637029 ], [ 127.557014270442153, 34.865600220138553 ], [ 127.557219507494082, 34.864930844907391 ], [ 127.557047071399893, 34.864240145813319 ], [ 127.556860966258668, 34.863595607958302 ], [ 127.556630750266777, 34.86262857706302 ], [ 127.556712239778605, 34.862270936567086 ], [ 127.553683332828243, 34.865142876179817 ], [ 127.553552024791813, 34.864325212578876 ], [ 127.55363144950627, 34.863656414272469 ], [ 127.553738374424086, 34.862918342219224 ], [ 127.553342264639539, 34.862228653090902 ], [ 127.552893158072848, 34.861977144999322 ], [ 127.552371763967798, 34.861368694139188 ], [ 127.550580516163294, 34.861134774993467 ] ] ] } },
{ "type": "Feature", "properties": { "fid": 76, "id": null, "num": "083" }, "geometry": { "type": "MultiLineString", "coordinates": [ [ [ 127.555997007324407, 34.861951506077176 ], [ 127.556654609228744, 34.862017654331559 ], [ 127.556608792451513, 34.861441624001237 ], [ 127.556688577168146, 34.860830445829563 ], [ 127.556642141436683, 34.860162219881047 ], [ 127.556567511804829, 34.859459548152522 ], [ 127.556642085508557, 34.859113463893863 ], [ 127.557203657340438, 34.859456642734571 ], [ 127.55808408590984, 34.859394992165662 ], [ 127.558713395627905, 34.85941515972641 ], [ 127.559434089330509, 34.859509815927268 ], [ 127.560329355220361, 34.859574853739218 ], [ 127.561015645232914, 34.859750332183246 ], [ 127.561736266165141, 34.859833450252893 ], [ 127.562227526930485, 34.860113543299214 ], [ 127.562266381197929, 34.859658134940723 ], [ 127.562702343774347, 34.860030679380714 ], [ 127.563514631210595, 34.860228611685891 ] ] ] } },
{ "type": "Feature", "properties": { "fid": 77, "id": null, "num": "084" }, "geometry": { "type": "MultiLineString", "coordinates": [ [ [ 127.557100945212994, 34.858736812407294 ], [ 127.55657051510093, 34.858866007510322 ], [ 127.556538604569255, 34.858278388570881 ], [ 127.556464751781746, 34.857690960981564 ], [ 127.55671323340178, 34.857217310026016 ], [ 127.557073325832519, 34.856708574287694 ], [ 127.557208483106749, 34.856016468751008 ], [ 127.557246239592942, 34.855393956961294 ], [ 127.557089354361054, 34.854933681736561 ], [ 127.556914230388756, 34.853839625343539 ], [ 127.556867100520464, 34.853067678619368 ], [ 127.556891420648455, 34.852525901641712 ], [ 127.556775476355483, 34.851915616274269 ] ] ] } },
{ "type": "Feature", "properties": { "fid": 78, "id": null, "num": "085" }, "geometry": { "type": "MultiLineString", "coordinates": [ [ [ 127.556101577489557, 34.851492273405249 ], [ 127.556940292453817, 34.851476920901789 ], [ 127.556782177790382, 34.850832253591058 ], [ 127.556678745672997, 34.850002939391459 ], [ 127.556479393927347, 34.849462183065029 ], [ 127.556098002802159, 34.848876157353097 ], [ 127.555826751459406, 34.848036082454797 ], [ 127.555933715768234, 34.847309531409529 ], [ 127.556037895032773, 34.846168099393516 ], [ 127.555880570999562, 34.845638674870152 ], [ 127.556971311145688, 34.845691322316803 ], [ 127.559472054109179, 34.845460903848945 ], [ 127.55740938441042, 34.846392334755961 ], [ 127.556570798539653, 34.846419214485145 ], [ 127.556505778298146, 34.847145574764426 ], [ 127.557595918405426, 34.847106020701275 ], [ 127.557334964689403, 34.847798702579006 ], [ 127.557937934244109, 34.848072540932989 ], [ 127.558444217207793, 34.848519691277744 ], [ 127.559101169647661, 34.84850515624192 ], [ 127.558489339396161, 34.848992001978374 ], [ 127.55633116628303, 34.848206654598698 ] ] ] } },
{ "type": "Feature", "properties": { "fid": 79, "id": null, "num": "086" }, "geometry": { "type": "MultiLineString", "coordinates": [ [ [ 127.550495614935954, 34.849408667940857 ], [ 127.550203880867542, 34.849686580123361 ], [ 127.550151864126804, 34.850274580439979 ] ] ] } },
{ "type": "Feature", "properties": { "fid": 80, "id": null, "num": "087" }, "geometry": { "type": "MultiLineString", "coordinates": [ [ [ 127.553945245937797, 34.844713970319468 ], [ 127.553451835114203, 34.844093869942682 ], [ 127.55372840535361, 34.843643146323451 ], [ 127.55382271344439, 34.843112576074155 ], [ 127.553623397553352, 34.842571814120667 ], [ 127.553131540027366, 34.842182201691784 ], [ 127.552932615297962, 34.841699060868848 ], [ 127.55321048791798, 34.841444254494299 ], [ 127.555179404625207, 34.841135662060651 ], [ 127.556494431330847, 34.841291016384169 ], [ 127.556554908785046, 34.841970705265851 ], [ 127.556490432914373, 34.842777737348406 ], [ 127.556411049082229, 34.843446539418558 ], [ 127.556248488295196, 34.844219444186606 ], [ 127.556057503147983, 34.844923329328111 ], [ 127.555976336061349, 34.845327068150439 ] ] ] } },
{ "type": "Feature", "properties": { "fid": 81, "id": null, "num": "088" }, "geometry": { "type": "MultiLineString", "coordinates": [ [ [ 127.560965818494012, 34.838965565918855 ], [ 127.561425523236977, 34.83873295400614 ], [ 127.562305649584275, 34.838659750325618 ], [ 127.562442299198182, 34.838198127014785 ], [ 127.561589586707768, 34.838190531619404 ], [ 127.562020314657815, 34.837808228075637 ], [ 127.56269170616892, 34.837874281320559 ], [ 127.563094707170663, 34.837526676399698 ], [ 127.563483100762099, 34.837086938975865 ] ] ] } },
{ "type": "Feature", "properties": { "fid": 82, "id": null, "num": "089" }, "geometry": { "type": "MultiLineString", "coordinates": [ [ [ 127.556058248578964, 34.840866587194867 ], [ 127.556520453510714, 34.841002776919922 ], [ 127.556740542971156, 34.84047163026009 ], [ 127.55694696140867, 34.839986644923798 ], [ 127.557083643110104, 34.839525027429481 ], [ 127.55714973744827, 34.838960008739214 ], [ 127.557174594993995, 34.838498901859516 ], [ 127.557156667618841, 34.837911217219329 ], [ 127.557292957569203, 34.83739197696724 ], [ 127.557303449248138, 34.836873311407025 ], [ 127.557215170279321, 34.836216799032833 ], [ 127.557211375416685, 34.83565209929148 ], [ 127.557150355871855, 34.834891738629331 ], [ 127.557288035291165, 34.834579938941253 ], [ 127.557339218334732, 34.833876689740919 ], [ 127.557279128520932, 34.833254622794662 ], [ 127.557218884800761, 34.832609506764697 ], [ 127.558538998145352, 34.831468310020647 ] ] ] } },
{ "type": "Feature", "properties": { "fid": 83, "id": null, "num": "090" }, "geometry": { "type": "MultiLineString", "coordinates": [ [ [ 127.561501227373839, 34.82927071262236 ], [ 127.56162451500802, 34.828901349872368 ], [ 127.564606914146012, 34.827642897612094 ] ] ] } },
{ "type": "Feature", "properties": { "fid": 84, "id": null, "num": "091" }, "geometry": { "type": "MultiLineString", "coordinates": [ [ [ 127.578467251621362, 34.827053570672071 ], [ 127.578815759138607, 34.826925144054393 ], [ 127.581352947929219, 34.827996411891995 ], [ 127.582904714968194, 34.826064357668393 ] ] ] } },
{ "type": "Feature", "properties": { "fid": 85, "id": null, "num": "092" }, "geometry": { "type": "MultiLineString", "coordinates": [ [ [ 127.587322382127667, 34.824268339819803 ], [ 127.587515177750888, 34.823864041905381 ], [ 127.587916453806031, 34.823297391167046 ] ] ] } },
{ "type": "Feature", "properties": { "fid": 86, "id": null, "num": "093" }, "geometry": { "type": "MultiLineString", "coordinates": [ [ [ 127.589830218987842, 34.81924293149283 ], [ 127.590290470233711, 34.81911393169726 ], [ 127.590063084944958, 34.818584927276198 ] ] ] } },
{ "type": "Feature", "properties": { "fid": 87, "id": null, "num": "094" }, "geometry": { "type": "MultiLineString", "coordinates": [ [ [ 127.589846450142204, 34.817594799658572 ], [ 127.590277760186538, 34.81732764166815 ], [ 127.590441265442308, 34.816739082934859 ], [ 127.590912767006245, 34.816229706249935 ], [ 127.590493634064813, 34.816243260807909 ], [ 127.590419172194217, 34.815598229487364 ], [ 127.590235464119729, 34.815310997195802 ], [ 127.589980250219583, 34.81479361337172 ], [ 127.590000740011973, 34.813744752346203 ], [ 127.590303481758284, 34.813086370809323 ], [ 127.590384697625879, 34.812717182291181 ], [ 127.589691982621702, 34.811591096588039 ], [ 127.589311109071772, 34.811085843204687 ] ] ] } },
{ "type": "Feature", "properties": { "fid": 88, "id": null, "num": "095" }, "geometry": { "type": "MultiLineString", "coordinates": [ [ [ 127.593608351882523, 34.804305673926422 ], [ 127.593080552196653, 34.804746186083804 ], [ 127.591589667015768, 34.805329668449552 ], [ 127.591020262075787, 34.805816472921251 ], [ 127.591154565336424, 34.805055180641205 ], [ 127.590676320626343, 34.804608027034661 ], [ 127.590211561201841, 34.80409165699826 ], [ 127.58978402966288, 34.803897801685977 ] ] ] } },
{ "type": "Feature", "properties": { "fid": 89, "id": null, "num": "096" }, "geometry": { "type": "MultiLineString", "coordinates": [ [ [ 127.590026159638612, 34.803562409503719 ], [ 127.589698848205742, 34.803708052991304 ], [ 127.589584618682039, 34.803362858771536 ], [ 127.589372793460754, 34.80304694812714 ], [ 127.589111824046071, 34.802696699766344 ], [ 127.588606151412534, 34.802318819440728 ], [ 127.588345636802771, 34.802031954015803 ], [ 127.587954926177758, 34.802102986827911 ], [ 127.587505474240729, 34.801770930423956 ], [ 127.586889591916844, 34.801612546269233 ], [ 127.586145935432782, 34.801166650820988 ], [ 127.585486033012998, 34.800708823979171 ], [ 127.585093254799744, 34.8004859729391 ], [ 127.584976042641657, 34.800705507809496 ], [ 127.584450417786172, 34.800466004231282 ], [ 127.583862695775679, 34.800336281963112 ], [ 127.583595785328001, 34.800130110980433 ] ] ] } },
{ "type": "Feature", "properties": { "fid": 90, "id": null, "num": "097" }, "geometry": { "type": "MultiLineString", "coordinates": [ [ [ 127.583059394076486, 34.800345885906538 ], [ 127.583280422698465, 34.799987557925029 ], [ 127.582651399195512, 34.79994446387537 ], [ 127.582303010764036, 34.800072900868614 ], [ 127.581443988198657, 34.800105809836936 ], [ 127.58057071164356, 34.800098443457522 ], [ 127.579873483038227, 34.800291919822428 ], [ 127.579303640535102, 34.800721047682863 ], [ 127.578872420423423, 34.800993929258063 ], [ 127.578399444038538, 34.801290057043062 ], [ 127.578037633556931, 34.801499219711431 ], [ 127.577886716151028, 34.801897543271537 ], [ 127.577790881236993, 34.802180356908444 ], [ 127.577640723281775, 34.802688162962447 ] ] ] } },
{ "type": "Feature", "properties": { "fid": 91, "id": null, "num": "098" }, "geometry": { "type": "MultiLineString", "coordinates": [ [ [ 127.577886549667411, 34.802877159489739 ], [ 127.577558858275651, 34.802970910247929 ], [ 127.577505777926589, 34.803374532524934 ], [ 127.577341083289937, 34.803801732741739 ], [ 127.577302694599226, 34.8043090093188 ], [ 127.577081508505572, 34.804650039799817 ], [ 127.576874572901943, 34.805031339580324 ], [ 127.576737855959379, 34.805464169048214 ], [ 127.576691315849502, 34.805804373066465 ], [ 127.576560782281561, 34.806121924251933 ], [ 127.576366692528609, 34.806341814067828 ], [ 127.576395957442401, 34.806531836344071 ] ] ] } },
{ "type": "Feature", "properties": { "fid": 92, "id": null, "num": "099" }, "geometry": { "type": "MultiLineString", "coordinates": [ [ [ 127.576135911260863, 34.806308329464358 ], [ 127.576186493982263, 34.806550113086928 ], [ 127.575986055906824, 34.806862231314859 ], [ 127.575722820739472, 34.807186170437937 ], [ 127.575368203694225, 34.807429865825782 ], [ 127.575028115896828, 34.807754165856892 ], [ 127.575210117032142, 34.807805169851761 ], [ 127.574742957749692, 34.807939907626121 ], [ 127.574675010506297, 34.808216824798166 ], [ 127.574593529081852, 34.808557192495329 ], [ 127.574473206665544, 34.808333023998813 ], [ 127.574511887453838, 34.808874511121694 ], [ 127.574556039265246, 34.809196999758939 ], [ 127.574635442468477, 34.809565421831017 ], [ 127.5750505132185, 34.809978361582836 ], [ 127.575241303024669, 34.810288633739191 ] ] ] } },
{ "type": "Feature", "properties": { "fid": 93, "id": null, "num": "100" }, "geometry": { "type": "MultiLineString", "coordinates": [ [ [ 127.571991625285605, 34.791910182436602 ], [ 127.572380872657277, 34.791631759387144 ], [ 127.572209424514895, 34.791079367668019 ], [ 127.57191304643969, 34.790642810353553 ], [ 127.571503488157916, 34.789999333905286 ], [ 127.569789751663961, 34.790664267930069 ], [ 127.570178130436403, 34.790259081844162 ], [ 127.570552615158149, 34.789865484389054 ], [ 127.569851217782173, 34.78944233978023 ], [ 127.569070196726273, 34.789630383062061 ], [ 127.568327295113932, 34.789265047738738 ], [ 127.568012088364227, 34.788114023265848 ], [ 127.56739032592796, 34.789119583761504 ], [ 127.56717830700002, 34.790803207429398 ] ] ] } },
{ "type": "Feature", "properties": { "fid": 94, "id": null, "num": "101_01" }, "geometry": { "type": "MultiLineString", "coordinates": [ [ [ 127.566378386383249, 34.794368121081504 ], [ 127.565905362866857, 34.794658438430361 ], [ 127.563062211673667, 34.793611298453719 ], [ 127.560692976979468, 34.794463526158864 ], [ 127.560212182084257, 34.795675850248529 ] ] ] } },
{ "type": "Feature", "properties": { "fid": 95, "id": null, "num": "101_02" }, "geometry": { "type": "MultiLineString", "coordinates": [ [ [ 127.558870847261716, 34.799807918279825 ], [ 127.55941595457324, 34.799839995151885 ], [ 127.560877906334895, 34.80115864782578 ], [ 127.560452062160763, 34.804306901930552 ] ] ] } },
{ "type": "Feature", "properties": { "fid": 96, "id": null, "num": "102" }, "geometry": { "type": "MultiLineString", "coordinates": [ [ [ 127.55763171451008, 34.806693952486356 ], [ 127.557299861084218, 34.807214088885445 ], [ 127.553847394598819, 34.809131416701895 ] ] ] } },
{ "type": "Feature", "properties": { "fid": 97, "id": null, "num": "103" }, "geometry": { "type": "MultiLineString", "coordinates": [ [ [ 127.55422932198239, 34.815059235977486 ], [ 127.553947385714025, 34.814691720260384 ], [ 127.551445829323342, 34.812559424279776 ] ] ] } },
{ "type": "Feature", "properties": { "fid": 98, "id": null, "num": "104" }, "geometry": { "type": "MultiLineString", "coordinates": [ [ [ 127.543402905999216, 34.817735610346205 ], [ 127.544059088867925, 34.817640486894433 ], [ 127.544420451691792, 34.817339227978458 ], [ 127.543817373731642, 34.8170076960117 ], [ 127.543443017171384, 34.817458834510106 ], [ 127.542742651130965, 34.81720840470296 ], [ 127.543200930077703, 34.816768419595853 ], [ 127.542794250693007, 34.816551256757499 ], [ 127.54237766700335, 34.816956480350747 ], [ 127.539979701247674, 34.815676329572256 ], [ 127.539138798798049, 34.815299726937297 ] ] ] } },
{ "type": "Feature", "properties": { "fid": 99, "id": null, "num": "105" }, "geometry": { "type": "MultiLineString", "coordinates": [ [ [ 127.537173738872696, 34.813959981915687 ], [ 127.537619698840942, 34.813773619433434 ], [ 127.539181291490124, 34.813236583600748 ], [ 127.540741662275408, 34.812515134894774 ], [ 127.539191820852096, 34.81270639195332 ], [ 127.539103264663055, 34.811980714867623 ], [ 127.53928207129718, 34.811541978659321 ], [ 127.537155439084017, 34.813291618630991 ], [ 127.536592178919008, 34.812625653074591 ], [ 127.53637803546367, 34.81192357591155 ], [ 127.535954894279598, 34.811314615650112 ] ] ] } },
{ "type": "Feature", "properties": { "fid": 100, "id": null, "num": "106" }, "geometry": { "type": "MultiLineString", "coordinates": [ [ [ 127.533914706278992, 34.813478715898356 ], [ 127.533400723367663, 34.813953484629408 ] ] ] } },
{ "type": "Feature", "properties": { "fid": 101, "id": null, "num": "107" }, "geometry": { "type": "MultiLineString", "coordinates": [ [ [ 127.535294032012814, 34.810677884677602 ], [ 127.535092797558121, 34.810891977978834 ], [ 127.534734962393216, 34.810657286199984 ], [ 127.534118554838244, 34.810412200564947 ], [ 127.533384787915125, 34.81038659799426 ], [ 127.532861836800748, 34.810550231454535 ], [ 127.532734711335806, 34.810337575835909 ], [ 127.532063971513452, 34.810334739916328 ], [ 127.531427352520311, 34.810204977758097 ], [ 127.5307915092679, 34.810196220382359 ], [ 127.530253550418237, 34.810198559271349 ], [ 127.529786633175178, 34.810384985845445 ], [ 127.527258257739888, 34.811611814475015 ] ] ] } },
{ "type": "Feature", "properties": { "fid": 102, "id": null, "num": "108" }, "geometry": { "type": "MultiLineString", "coordinates": [ [ [ 127.537978592959362, 34.822790259737957 ], [ 127.538259552270489, 34.823013755545617 ], [ 127.538150218338657, 34.82339455876 ], [ 127.538543542900811, 34.823703994721562 ], [ 127.538895618338088, 34.824117335456073 ], [ 127.539763735739243, 34.824367044809172 ], [ 127.539817237383204, 34.823998012170733 ], [ 127.539215327137768, 34.823850850706492 ], [ 127.5387798492835, 34.823507028486546 ], [ 127.539199778945445, 34.823608897083894 ], [ 127.53865197751098, 34.823184896653395 ], [ 127.538513273468752, 34.823346857234498 ] ] ] } },
{ "type": "Feature", "properties": { "fid": 103, "id": null, "num": "109" }, "geometry": { "type": "MultiLineString", "coordinates": [ [ [ 127.52910400222018, 34.824955410610663 ], [ 127.529506715881439, 34.824550292701048 ], [ 127.529769525291314, 34.824122731278145 ], [ 127.52999070077334, 34.823741449656822 ], [ 127.529765183558908, 34.823442782237493 ] ] ] } },
{ "type": "Feature", "properties": { "fid": 104, "id": null, "num": "110" }, "geometry": { "type": "MultiLineString", "coordinates": [ [ [ 127.535678072603545, 34.830124437859396 ], [ 127.536124271635089, 34.82996112960474 ], [ 127.536699238012559, 34.830258247793282 ], [ 127.53725985886409, 34.830497802102634 ], [ 127.537851200923001, 34.83116363820136 ], [ 127.53824560878266, 34.831634417816218 ], [ 127.538570512148183, 34.832163127272551 ], [ 127.538755652330508, 34.832692453159027 ], [ 127.538842507866391, 34.83315306377186 ], [ 127.538888107703158, 34.833717580242698 ], [ 127.539073028783335, 34.83421233189182 ], [ 127.539229248590985, 34.834591961562595 ], [ 127.539640657805421, 34.835523655169311 ], [ 127.540063126539081, 34.836005829110455 ] ] ] } },
{ "type": "Feature", "properties": { "fid": 105, "id": null, "num": "111" }, "geometry": { "type": "MultiLineString", "coordinates": [ [ [ 127.542508973177874, 34.838104022200824 ], [ 127.543141213228637, 34.838596776742015 ], [ 127.543811766046673, 34.838536164696613 ], [ 127.544157502808702, 34.837969905434207 ], [ 127.546741076831452, 34.835492035205334 ], [ 127.546794021883898, 34.835042328852857 ], [ 127.547841436110645, 34.832790283493928 ], [ 127.547530219689207, 34.832226963154525 ], [ 127.54708076255703, 34.831894759096478 ], [ 127.547049844681112, 34.831445428482972 ] ] ] } },
{ "type": "Feature", "properties": { "fid": 106, "id": null, "num": "112" }, "geometry": { "type": "MultiLineString", "coordinates": [ [ [ 127.547959730599771, 34.829539743421229 ], [ 127.548278287863241, 34.829100367447573 ], [ 127.551304472948857, 34.825986541138263 ] ] ] } },
{ "type": "Feature", "properties": { "fid": 107, "id": null, "num": "113" }, "geometry": { "type": "MultiLineString", "coordinates": [ [ [ 127.554620670724944, 34.822387276534378 ], [ 127.555093274641976, 34.822004806377024 ], [ 127.556447387060217, 34.823865665089144 ], [ 127.557175878009048, 34.824127411663419 ] ] ] } },
{ "type": "Feature", "properties": { "fid": 108, "id": null, "num": "돌산_003" }, "geometry": { "type": "MultiLineString", "coordinates": [ [ [ 127.735476954157434, 34.634692654733556 ], [ 127.736059101954666, 34.634297297239364 ], [ 127.735442469733741, 34.633943732342757 ], [ 127.735474010025655, 34.634358445267239 ], [ 127.734609045782435, 34.634306022416851 ], [ 127.734941138018073, 34.634015898783481 ], [ 127.733376608273005, 34.633691070375967 ], [ 127.732652293002388, 34.633776090420625 ], [ 127.732093369614134, 34.633641138982121 ], [ 127.731839571725345, 34.633319956838463 ] ] ] } },
{ "type": "Feature", "properties": { "fid": 109, "id": null, "num": "돌산_004" }, "geometry": { "type": "MultiLineString", "coordinates": [ [ [ 127.7282469207546, 34.630667598053464 ], [ 127.728313918116285, 34.630356021401546 ], [ 127.725423548589788, 34.631479620383367 ], [ 127.724926324377805, 34.632024249955855 ], [ 127.724553976993249, 34.632498986679742 ], [ 127.725650111505047, 34.633483640708484 ] ] ] } },
{ "type": "Feature", "properties": { "fid": 110, "id": null, "num": "돌산_005" }, "geometry": { "type": "MultiLineString", "coordinates": [ [ [ 127.72489686840882, 34.635055522507862 ], [ 127.724748697471583, 34.635655705654592 ], [ 127.724950505679615, 34.636415164094373 ], [ 127.724690986291932, 34.637039057703028 ], [ 127.724962114562274, 34.637752004522071 ], [ 127.723435324797464, 34.63856780798416 ], [ 127.721050762080239, 34.640172361986579 ] ] ] } },
{ "type": "Feature", "properties": { "fid": 111, "id": null, "num": "돌산_006" }, "geometry": { "type": "MultiLineString", "coordinates": [ [ [ 127.719294884966217, 34.641922996585478 ], [ 127.719326249381595, 34.642326189615027 ], [ 127.71673174796274, 34.645487779919804 ], [ 127.719033231178145, 34.645543409368933 ], [ 127.719729575622708, 34.645435584235081 ] ] ] } },
{ "type": "Feature", "properties": { "fid": 112, "id": null, "num": "돌산_007" }, "geometry": { "type": "MultiLineString", "coordinates": [ [ [ 127.720530964449921, 34.64941853378501 ], [ 127.721078421046229, 34.649830206414698 ], [ 127.720843637462849, 34.650096668121748 ], [ 127.720669213250559, 34.650892926078043 ], [ 127.721740637306624, 34.650610000560093 ], [ 127.723188822141992, 34.651961394139185 ], [ 127.723549760673322, 34.653376838660265 ], [ 127.723860273847905, 34.653801426268913 ], [ 127.723920958255249, 34.654365794135693 ] ] ] } },
{ "type": "Feature", "properties": { "fid": 113, "id": null, "num": "돌산_008" }, "geometry": { "type": "MultiLineString", "coordinates": [ [ [ 127.725671581940617, 34.651992773840789 ], [ 127.726577659932346, 34.651941288826464 ], [ 127.727121045009255, 34.651880431015591 ] ] ] } },
{ "type": "Feature", "properties": { "fid": 114, "id": null, "num": "돌산_009" }, "geometry": { "type": "MultiLineString", "coordinates": [ [ [ 127.729484116328692, 34.649388459234338 ], [ 127.730066394521728, 34.648993129650769 ], [ 127.730368551637, 34.648461171406282 ], [ 127.731058846824084, 34.647661814472045 ], [ 127.731112203995522, 34.647384893898725 ], [ 127.73158370886523, 34.647082420289088 ] ] ] } },
{ "type": "Feature", "properties": { "fid": 115, "id": null, "num": "돌산_010" }, "geometry": { "type": "MultiLineString", "coordinates": [ [ [ 127.734329367849256, 34.643328950544536 ], [ 127.734723510353376, 34.642954898087112 ], [ 127.735454138815797, 34.642786270672069 ], [ 127.736206214281523, 34.642678016241383 ], [ 127.736665992956532, 34.642632026264231 ], [ 127.737014242118491, 34.642984321821125 ], [ 127.737333865518067, 34.642463765942146 ], [ 127.738044408581018, 34.642390325984913 ], [ 127.738712964781229, 34.642299848145583 ], [ 127.739171055790791, 34.642063695494599 ], [ 127.739568923131813, 34.642113150822915 ], [ 127.739648068861328, 34.641602687963498 ], [ 127.740230269721479, 34.641210191754972 ], [ 127.740750791324857, 34.640939079812462 ], [ 127.741251621803244, 34.640806385810407 ], [ 127.741510382778415, 34.640502283068024 ], [ 127.742212214833046, 34.640627679046595 ], [ 127.742685666469654, 34.640944622699458 ] ] ] } },
{ "type": "Feature", "properties": { "fid": 116, "id": null, "num": "돌산_011" }, "geometry": { "type": "MultiLineString", "coordinates": [ [ [ 127.75217458314421, 34.637800748145146 ], [ 127.752901147877765, 34.63777034224492 ], [ 127.75265227864503, 34.637426123777018 ], [ 127.753058989995495, 34.637298283048509 ], [ 127.753390896531911, 34.637572838432355 ], [ 127.753864917590761, 34.637371107797087 ], [ 127.754401251415885, 34.637121449800468 ], [ 127.754671152400391, 34.636899366577993 ], [ 127.75449665200972, 34.636684349397392 ], [ 127.75399340915564, 34.636544833059411 ], [ 127.754434332386865, 34.63615314104598 ], [ 127.754662641897255, 34.63653637995494 ], [ 127.755016589909459, 34.636356995831434 ], [ 127.754699939220714, 34.636034809751131 ], [ 127.75532858978238, 34.636164904298418 ], [ 127.755896141785541, 34.636476893136042 ], [ 127.756239138006606, 34.636820522473293 ], [ 127.756696463804133, 34.637085648779767 ], [ 127.755568416900999, 34.636664761448138 ], [ 127.755221915679556, 34.636511315236724 ], [ 127.755283106684132, 34.636917195150403 ] ] ] } },
{ "type": "Feature", "properties": { "fid": 117, "id": null, "num": "돌산_013" }, "geometry": { "type": "MultiLineString", "coordinates": [ [ [ 127.757960253310586, 34.63633012855226 ], [ 127.758568192532152, 34.636481944279112 ], [ 127.758752496856019, 34.636048610621977 ], [ 127.759398333294754, 34.635767997513035 ], [ 127.758489179579911, 34.63584279442928 ], [ 127.75836716139284, 34.635074254509554 ], [ 127.759049942841287, 34.635407122991985 ], [ 127.759864346980137, 34.635263760841767 ], [ 127.760225705000948, 34.634751529734046 ], [ 127.759755344916414, 34.634780424233483 ], [ 127.759056392005419, 34.634966249687317 ], [ 127.758374006761983, 34.63467659768542 ], [ 127.759040173010249, 34.634335391576421 ], [ 127.759459793015552, 34.634479728807641 ], [ 127.760003823310853, 34.634502240030287 ], [ 127.759330637940963, 34.634074235492022 ], [ 127.759405252923315, 34.633079735842657 ], [ 127.759347701255081, 34.632500959396857 ], [ 127.759846247649307, 34.632126177386716 ] ] ] } },
{ "type": "Feature", "properties": { "fid": 118, "id": null, "num": "돌산_012" }, "geometry": { "type": "MultiLineString", "coordinates": [ [ [ 127.761499433702994, 34.637959087168731 ], [ 127.762296574080722, 34.638213430288509 ] ] ] } },
{ "type": "Feature", "properties": { "fid": 119, "id": null, "num": "돌산_014_01" }, "geometry": { "type": "MultiLineString", "coordinates": [ [ [ 127.762870442282022, 34.633490341983055 ], [ 127.763563447987323, 34.633797190053336 ], [ 127.766211117645042, 34.632864375815522 ], [ 127.766830931605739, 34.633171664206117 ], [ 127.766655842591092, 34.632325671680086 ], [ 127.766893570518533, 34.632021647421368 ], [ 127.768777142335836, 34.632156756482004 ], [ 127.768728041747224, 34.63250281682064 ] ] ] } },
{ "type": "Feature", "properties": { "fid": 120, "id": null, "num": "돌산_014_02" }, "geometry": { "type": "MultiLineString", "coordinates": [ [ [ 127.769308231726001, 34.638722688034719 ], [ 127.769791115120228, 34.638918453667877 ], [ 127.770074997711077, 34.637948561877316 ], [ 127.77079646096584, 34.637935406886541 ], [ 127.770646544710928, 34.637556026298768 ], [ 127.771502857976486, 34.637420965914814 ], [ 127.771622204394745, 34.637886976248112 ], [ 127.772487936949688, 34.637639480370709 ], [ 127.77245240531326, 34.637190228625535 ], [ 127.773448021410388, 34.637417312497789 ], [ 127.773138061002669, 34.637825531578805 ], [ 127.773914158837272, 34.638062644116729 ], [ 127.774182607072234, 34.637689261224395 ], [ 127.774895399819641, 34.637866262175827 ], [ 127.774628478311811, 34.638403868626952 ], [ 127.775335417143495, 34.637949908610331 ], [ 127.775939084461754, 34.637634862963786 ], [ 127.776206629432252, 34.638290090406315 ] ] ] } },
{ "type": "Feature", "properties": { "fid": 121, "id": null, "num": "돌산_016" }, "geometry": { "type": "MultiLineString", "coordinates": [ [ [ 127.782496676146707, 34.651060020789643 ], [ 127.783010795695688, 34.65122960163297 ], [ 127.784964279563837, 34.653187839388153 ] ] ] } },
{ "type": "Feature", "properties": { "fid": 122, "id": null, "num": "돌산_018" }, "geometry": { "type": "MultiLineString", "coordinates": [ [ [ 127.77301675424745, 34.652952849671713 ], [ 127.772611559776308, 34.653249300573187 ], [ 127.769694642296969, 34.65453834532142 ], [ 127.76949893974006, 34.654868040857053 ], [ 127.768784179545733, 34.654492215795194 ], [ 127.769347482829701, 34.654324438249233 ], [ 127.768654602745116, 34.654052199632694 ] ] ] } },
{ "type": "Feature", "properties": { "fid": 123, "id": null, "num": "돌산_017" }, "geometry": { "type": "MultiLineString", "coordinates": [ [ [ 127.776943064370471, 34.656731191562706 ], [ 127.776278138447921, 34.657219468575917 ] ] ] } },
{ "type": "Feature", "properties": { "fid": 124, "id": null, "num": "돌산_020" }, "geometry": { "type": "MultiLineString", "coordinates": [ [ [ 127.77894711854411, 34.703282105166693 ], [ 127.778255655116084, 34.70320872194393 ], [ 127.778364432670529, 34.703648856115493 ], [ 127.77792947408004, 34.704144318220557 ], [ 127.777873269147108, 34.703729779757985 ], [ 127.777371073997259, 34.703750265913285 ], [ 127.777104267256405, 34.703198768990504 ], [ 127.776658419823406, 34.702527398984792 ] ] ] } },
{ "type": "Feature", "properties": { "fid": 125, "id": null, "num": "돌산_021" }, "geometry": { "type": "MultiLineString", "coordinates": [ [ [ 127.783905641845337, 34.705238411692683 ], [ 127.784338083534891, 34.705590024644735 ] ] ] } },
{ "type": "Feature", "properties": { "fid": 126, "id": null, "num": "돌산_022" }, "geometry": { "type": "MultiLineString", "coordinates": [ [ [ 127.782972771497853, 34.712885401093288 ], [ 127.783548369624882, 34.712873064011731 ], [ 127.784291193515642, 34.712833718894899 ], [ 127.784286101761964, 34.713404233274176 ], [ 127.783427078511338, 34.713331956619996 ], [ 127.783557970849699, 34.713892954466061 ], [ 127.784206437796684, 34.713836928145618 ], [ 127.784199635369077, 34.714225936563963 ], [ 127.783572587762549, 34.714333687332356 ] ] ] } },
{ "type": "Feature", "properties": { "fid": 127, "id": null, "num": "돌산_023" }, "geometry": { "type": "MultiLineString", "coordinates": [ [ [ 127.778430011380578, 34.711782134669093 ], [ 127.778864325004832, 34.712332558999279 ], [ 127.77910017764377, 34.712927466861679 ], [ 127.779388044951276, 34.71348746742926 ], [ 127.779173578414117, 34.714059318442096 ], [ 127.778444926130774, 34.71449615061573 ], [ 127.777768117388035, 34.714880786147468 ], [ 127.777038966262594, 34.715265751150397 ], [ 127.776258278143246, 34.715737476205611 ], [ 127.775205349802121, 34.716202281871468 ], [ 127.774098303922571, 34.716477261085551 ], [ 127.773137232261149, 34.716690800128582 ], [ 127.772278263341974, 34.716627088385849 ], [ 127.771479696392603, 34.716303678849854 ], [ 127.771015129007225, 34.715874430794059 ] ] ] } },
{ "type": "Feature", "properties": { "fid": 128, "id": null, "num": "돌산_024" }, "geometry": { "type": "MultiLineString", "coordinates": [ [ [ 127.776577403212158, 34.717965511113512 ], [ 127.777009316796551, 34.718256646851174 ], [ 127.779343375852747, 34.720454542396311 ] ] ] } },
{ "type": "Feature", "properties": { "fid": 129, "id": null, "num": "025" }, "geometry": { "type": "MultiLineString", "coordinates": [ [ [ 127.770320025480757, 34.717114863728938 ], [ 127.770134490452463, 34.71742720643504 ], [ 127.770398992454034, 34.71886038564169 ], [ 127.770843358780851, 34.719367556285825 ], [ 127.771037303942265, 34.719962743989882 ], [ 127.772173522923296, 34.720569261177396 ], [ 127.772242025329277, 34.721182527608768 ], [ 127.772643821030428, 34.72161216774299 ], [ 127.773377386089507, 34.721693958470311 ], [ 127.774069723576645, 34.721845155493305 ], [ 127.774312258231006, 34.722033777548084 ], [ 127.774466061490116, 34.721687055471961 ], [ 127.774954919546531, 34.721346849983952 ] ] ] } },
{ "type": "Feature", "properties": { "fid": 130, "id": null, "num": "돌산_025" }, "geometry": { "type": "MultiLineString", "coordinates": [ [ [ 127.763764527904257, 34.715703920897916 ], [ 127.763147511708155, 34.715768285634994 ], [ 127.762530019377792, 34.715780788186429 ], [ 127.762806843309718, 34.71628903532671 ], [ 127.762021789768255, 34.716293938638316 ], [ 127.762154620638512, 34.715938718751211 ] ] ] } },
{ "type": "Feature", "properties": { "fid": 131, "id": null, "num": "돌산_026" }, "geometry": { "type": "MultiLineString", "coordinates": [ [ [ 127.764091290673264, 34.711388681876294 ], [ 127.764561659708122, 34.711316587409129 ], [ 127.766005354880477, 34.711229743819608 ], [ 127.766029708458817, 34.711601269116791 ], [ 127.766076905007239, 34.712180099262795 ], [ 127.766081359568716, 34.712664117144811 ] ] ] } },
{ "type": "Feature", "properties": { "fid": 132, "id": null, "num": "돌산_027" }, "geometry": { "type": "MultiLineString", "coordinates": [ [ [ 127.762007704256646, 34.714755452561917 ], [ 127.761517011633686, 34.714896813466524 ], [ 127.759402635130172, 34.714909985346388 ], [ 127.758748479595766, 34.715493179445986 ], [ 127.758033555175999, 34.715151873995993 ], [ 127.757349802262524, 34.714784439867799 ], [ 127.757333507818515, 34.7152945179716 ], [ 127.756473542140824, 34.715118332953622 ] ] ] } },
{ "type": "Feature", "properties": { "fid": 133, "id": null, "num": "돌산_028" }, "geometry": { "type": "MultiLineString", "coordinates": [ [ [ 127.757063099824492, 34.714336746962502 ], [ 127.757386873549223, 34.714256945456306 ], [ 127.7576019632792, 34.713736989996946 ], [ 127.757828382964817, 34.713312044280364 ], [ 127.758129328626893, 34.713024934205698 ] ] ] } },
{ "type": "Feature", "properties": { "fid": 134, "id": null, "num": "돌산_031" }, "geometry": { "type": "MultiLineString", "coordinates": [ [ [ 127.753726389718139, 34.716924567626819 ], [ 127.754085886401114, 34.717319956525785 ], [ 127.756826320697982, 34.718227869726761 ], [ 127.754532484435188, 34.720394345043438 ] ] ] } },
{ "type": "Feature", "properties": { "fid": 135, "id": null, "num": "돌산_032" }, "geometry": { "type": "MultiLineString", "coordinates": [ [ [ 127.749748031889709, 34.722679825003681 ], [ 127.749342339982292, 34.722967557440292 ], [ 127.749151265703276, 34.722674845426965 ], [ 127.748678843983541, 34.72136390547594 ], [ 127.746393859518548, 34.722216335572185 ], [ 127.746931549184708, 34.724970378338071 ], [ 127.746307082136497, 34.725380450685222 ], [ 127.74557567663372, 34.725540506639121 ] ] ] } },
{ "type": "Feature", "properties": { "fid": 136, "id": null, "num": "돌산_033" }, "geometry": { "type": "MultiLineString", "coordinates": [ [ [ 127.745165465832386, 34.720650691424758 ], [ 127.745232066322799, 34.721073825080367 ], [ 127.742014926429519, 34.721879998647772 ], [ 127.741493830174349, 34.722142475567509 ], [ 127.741436796980835, 34.722791097914545 ], [ 127.741315874981382, 34.723319096713034 ] ] ] } },
{ "type": "Feature", "properties": { "fid": 137, "id": null, "num": "돌산_034" }, "geometry": { "type": "MultiLineString", "coordinates": [ [ [ 127.741720460756724, 34.725252822341012 ], [ 127.742204019038198, 34.725474618484533 ], [ 127.74233365197631, 34.725923301189802 ], [ 127.742214119370743, 34.726606878258899 ] ] ] } },
{ "type": "Feature", "properties": { "fid": 138, "id": null, "num": "돌산_039" }, "geometry": { "type": "MultiLineString", "coordinates": [ [ [ 127.754340695287723, 34.730705262447451 ], [ 127.755050876014025, 34.730510710481397 ] ] ] } },
{ "type": "Feature", "properties": { "fid": 139, "id": null, "num": "돌산_040" }, "geometry": { "type": "MultiLineString", "coordinates": [ [ [ 127.758802138734993, 34.729700872739926 ], [ 127.759228294507366, 34.729361119871278 ], [ 127.759968200689244, 34.728984837639814 ], [ 127.76056019166576, 34.728462530606926 ], [ 127.761048909912077, 34.72809645054182 ], [ 127.761932826888895, 34.727442661325966 ], [ 127.762943384755843, 34.726900441700337 ], [ 127.76336744721911, 34.726335952387565 ], [ 127.763771280924288, 34.725849381100154 ] ] ] } },
{ "type": "Feature", "properties": { "fid": 140, "id": null, "num": "돌산_035" }, "geometry": { "type": "MultiLineString", "coordinates": [ [ [ 127.738149128480259, 34.731985188919808 ], [ 127.73872661747707, 34.731880401989748 ], [ 127.740847887279784, 34.731925425983647 ], [ 127.742653157696637, 34.731914454555273 ], [ 127.742604282594939, 34.730366416723392 ], [ 127.741097255391111, 34.730404517504795 ], [ 127.739029246861207, 34.730431527245976 ], [ 127.737049510367555, 34.730530321016495 ], [ 127.737054730006989, 34.729141128018782 ], [ 127.739578263204493, 34.729096922223725 ], [ 127.742013257892012, 34.728951909454665 ], [ 127.739957664504686, 34.728400041991065 ] ] ] } },
{ "type": "Feature", "properties": { "fid": 141, "id": null, "num": "돌산_036" }, "geometry": { "type": "MultiLineString", "coordinates": [ [ [ 127.742943862126268, 34.733063083629204 ], [ 127.742947843879207, 34.732527653912911 ], [ 127.744534103640106, 34.732525222720625 ], [ 127.745669014072035, 34.732033535139919 ], [ 127.745625335265117, 34.731071519185605 ], [ 127.743014114009554, 34.731116384484729 ], [ 127.743073816291144, 34.729951151925214 ], [ 127.745413081459702, 34.729879005971704 ], [ 127.743100985031305, 34.729068290535842 ] ] ] } },
{ "type": "Feature", "properties": { "fid": 142, "id": null, "num": "돌산_037" }, "geometry": { "type": "MultiLineString", "coordinates": [ [ [ 127.74701875818603, 34.729116727044158 ], [ 127.747422967708872, 34.729237251004029 ], [ 127.74787545672082, 34.729856745268094 ], [ 127.747969489080177, 34.730565181568338 ] ] ] } },
{ "type": "Feature", "properties": { "fid": 143, "id": null, "num": "012" }, "geometry": { "type": "MultiLineString", "coordinates": [ [ [ 127.631011563587364, 34.762279500251829 ], [ 127.630615523222886, 34.762464839858261 ], [ 127.630660398766054, 34.763757302950367 ], [ 127.632787933954049, 34.763755937221418 ], [ 127.63271440683873, 34.764846426524791 ], [ 127.630749984280101, 34.764779419389143 ], [ 127.630851627963892, 34.765849708112903 ], [ 127.63272116332557, 34.765733912979897 ] ] ] } },
{ "type": "Feature", "properties": { "fid": 144, "id": null, "num": "돌산_030" }, "geometry": { "type": "MultiLineString", "coordinates": [ [ [ 127.753108154622225, 34.714447285857915 ], [ 127.752606957725746, 34.714575787426547 ], [ 127.751218770641984, 34.716098911704819 ] ] ] } },
{ "type": "Feature", "properties": { "fid": 145, "id": null, "num": "돌산_029" }, "geometry": { "type": "MultiLineString", "coordinates": [ [ [ 127.750315751360304, 34.715718586811036 ], [ 127.749729724886564, 34.715509954119199 ], [ 127.749292919593486, 34.716303687347413 ], [ 127.747798354461409, 34.716399674718737 ], [ 127.749768817792301, 34.717255814870967 ], [ 127.748328252051323, 34.71816182221675 ], [ 127.749083581868589, 34.719006122189491 ], [ 127.750407675274118, 34.718139409904317 ] ] ] } },
{ "type": "Feature", "properties": { "fid": 146, "id": null, "num": "돌산_019" }, "geometry": { "type": "MultiLineString", "coordinates": [ [ [ 127.763927946094682, 34.651558743309941 ], [ 127.76337329003762, 34.651542916196405 ], [ 127.762760239699233, 34.650885921793694 ], [ 127.764710010685221, 34.650912321303274 ], [ 127.764687948948861, 34.64977893009825 ], [ 127.76340194058119, 34.650211480988816 ], [ 127.762150083652912, 34.649905729596888 ], [ 127.763591226201925, 34.649206966043486 ] ] ] } }
]
}
